aid,address,address2,city,province,country,postal_code,phone,name
6437985917,8 Acker Crossing,Apt 1263,Kalengwa,,ZM,,581-505-3774,Itch Dowrey
4186593256,5938 Park Meadow Circle,Suite 89,Guohe,,CN,,114-881-8296,Glen Loxdale
1480193909,679 Carey Plaza,Suite 58,Martil,,MA,,255-579-8688,Regen Luton
5751992180,364 Esch Avenue,PO Box 72011,Syracuse,New York,US,13205,315-699-5242,Doloritas Foulis
2230914774,79 Hollow Ridge Way,PO Box 9303,Ngô Đồng,,VN,,670-159-4445,Romeo Willatt
0045667276,0 Lakewood Circle,Room 1059,Trpinja,,HR,32224,259-742-7241,Josie Arrol
0355793725,637 Spohn Pass,13th Floor,Pavlovka,,RU,617820,594-731-3031,Feliks Delepine
9613913491,6767 Fisk Terrace,PO Box 7489,Paris 09,Île-de-France,FR,75439 CEDEX 09,626-465-2583,Roch Taffe
6811060131,8223 Dunning Lane,Suite 26,Notsé,,TG,,411-734-2298,Amandi Stebbing
8878872768,1140 Killdeer Alley,Room 1458,Luxi,,CN,,856-408-2194,Paulie Poltun
4434946935,3761 Graceland Street,Apt 1274,Qesarya,,IL,,133-397-9429,Teena Faithorn
1620165120,70 Hanson Place,PO Box 27135,Nakanojōmachi,,JP,377-0816,536-162-0017,Ced Wilbraham
5665840009,0063 Dottie Alley,Apt 1941,Powidz,,PL,62-430,946-229-5344,Jaquenette Dorgan
0796380597,56309 Esch Trail,Room 1309,Capayán,,AR,4726,729-319-8307,Otha Bohl
0516145878,9 Hudson Park,Apt 523,Rozivka,,UA,,698-830-5102,Parnell Cornu
3592499289,4006 Browning Lane,Room 396,Ebene,,MU,,224-935-4089,Reynolds Gong
7358051319,59 Barnett Center,Apt 839,Västerås,Västmanland,SE,722 44,279-886-3531,Evie Tomasicchio
7271763961,18323 West Circle,Room 1393,Boyang,,CN,,939-596-6245,Ashlie Kitney
3825509680,6993 Mitchell Trail,PO Box 54882,Balesari,,ID,,778-664-7252,Jereme Erni
2557496871,4159 East Point,Apt 484,Tajao,,PH,6039,680-159-5505,Basia Yanov
7483362898,0 Orin Crossing,Suite 71,Szczecinek,,PL,78-410,530-777-7202,Celinka Stolli
0990452794,42 Redwing Way,Apt 362,Almelo,Provincie Overijssel,NL,7609,246-338-7336,Judon McKiernan
4336424535,672 Loftsgordon Road,Room 1026,Yingzhou,,CN,,556-579-6524,Livvie Wimes
5209656950,591 Paget Pass,Suite 5,Pyin Oo Lwin,,MM,,776-829-2549,Farris Jammes
1206413018,2 Johnson Circle,20th Floor,Lasek,,PL,34-471,164-578-4899,Amata Flobert
4063042804,00726 Dovetail Drive,PO Box 10741,Đạ Tẻh,,VN,,556-352-3267,Killian Camamill
1053890303,1812 Marquette Alley,Suite 18,Gračec,,HR,10370,239-302-0555,Cacilia Farry
6374909143,4 Spohn Junction,PO Box 22226,Nova Venécia,,BR,29830-000,867-174-4413,Graham Grainge
2997293030,65605 Fieldstone Way,Room 1786,Barra Mansa,,BR,27300-000,774-730-5377,Stavro Loyley
2755530944,3 Nova Plaza,PO Box 81624,Ardee,,IE,V94,653-474-5148,Cirstoforo Biers
6730178426,954 Barnett Avenue,Room 1663,Ryglice,,PL,33-160,645-933-6828,Budd Swancock
2884305912,744 Garrison Terrace,4th Floor,Nova Odessa,,BR,13460-000,381-886-0361,Jordanna Marl
7626192540,6285 Merry Park,8th Floor,Ingeniero Guillermo N. Juárez,,AR,3636,132-510-2987,Kelvin Glaserman
8913234262,99 Springs Court,Room 1005,Taklale,,ID,,336-385-8942,Loleta Fulcher
9697479348,170 Ilene Point,PO Box 41578,Allada,,BJ,,586-748-4101,Flossy Tippetts
6391575266,90 Lyons Alley,PO Box 67667,Mislīyah,,PS,,485-839-1598,Miquela Killwick
4344386671,9 Blackbird Parkway,8th Floor,Zhulan,,CN,,817-778-7756,Adorne Caulfield
9559157868,99287 Helena Park,Apt 1832,Kassiri,,SL,,100-352-7655,Leopold Goulborne
1220169064,1 Lawn Circle,Suite 2,Pateh Sam,,GM,,977-957-2247,Anatollo Ridolfi
2567230173,07961 Barby Crossing,Suite 59,Hetian,,CN,,936-245-4874,Otha Redit
0712828710,129 Armistice Crossing,Apt 1417,Al Muharraq,,BH,,774-610-5472,Heinrik Gooderidge
7638860578,32 Aberg Drive,Apt 516,Évry,Île-de-France,FR,91044 CEDEX,811-861-2397,Kaye Hubatsch
5798482715,33340 Farwell Street,Suite 86,Sangari,,ID,,891-503-9087,Darcie Conklin
9509029734,215 Eggendart Plaza,7th Floor,Talisay,,PH,4602,506-591-5505,Aldin Patching
7913781904,1 Pierstorff Way,Room 694,Milwaukee,Wisconsin,US,53234,414-155-4977,Venita Mackriell
0046729348,02835 Meadow Valley Terrace,PO Box 49938,Plyeshchanitsy,,BY,,313-307-5393,Krystal Chattaway
3760578624,1 Sundown Pass,Suite 27,Denver,Colorado,US,80291,303-819-8644,Seka Suero
1538818310,9 Rutledge Circle,Room 1410,La Curva,,PH,1235,908-690-5724,Kellia McDool
8188895407,54 Mifflin Drive,Suite 46,Muqui,,PE,,544-893-6095,Krystalle Sepey
2500321266,046 Graceland Parkway,Suite 26,Campor,,ID,,422-794-7562,Sapphire Feldstein
7816594224,36 Sycamore Park,Suite 97,Si’erbao,,CN,,903-766-0142,Carey Rown
4327246425,0 Melby Crossing,PO Box 8293,Barrancas,,CO,443049,931-919-9630,Susie Toy
0454496907,819 Ruskin Plaza,Room 1569,Lahān,,NP,,806-901-1486,Nannette Beagan
9137815210,02026 Sauthoff Crossing,Suite 8,Tebingtinggi,,ID,,702-551-2786,Palm Broggetti
7593760235,31 Towne Plaza,Room 1760,Ra-ngae,,TH,96130,545-538-8988,Brinn Pottery
8105868652,40 Kennedy Crossing,Suite 56,Citampian,,ID,,618-896-4778,Anett Maydway
5572861022,1 Fuller Trail,3rd Floor,Karakol,,KG,,453-398-0701,Marris De Angelis
8392417658,82 3rd Junction,Suite 76,Qusar,,AZ,,494-268-9764,Gwyneth Hudless
3563626278,82 Rutledge Hill,PO Box 4170,Năm Căn,,VN,,465-202-7277,Carly Iacapucci
2083954475,54730 Basil Road,9th Floor,Didou,,CN,,405-832-4521,Olenolin Gosnall
6979143255,01977 Springview Hill,Suite 8,As Saddah,,YE,,575-988-1733,Albie Gauler
3880899770,7008 Village Road,PO Box 10019,Dongshi,,CN,,699-100-1432,Ernesto Giovanardi
3380066982,8548 Mccormick Street,PO Box 3515,Quintães,Viana do Castelo,PT,4940-206,705-813-7782,Dionysus Wahncke
2165034132,4731 Homewood Hill,Suite 3,Kodra,,UA,,738-570-5218,Rene Bulfoot
6071021367,115 Crownhardt Road,9th Floor,Negeriagung,,ID,,403-432-0419,Charleen Blanch
6673982829,15 Steensland Center,Room 1355,Cravo Norte,,CO,812019,850-990-2552,Deerdre Cristofolini
7938640751,79 Sugar Lane,Apt 399,Sinisian,,PH,4212,113-979-4515,Reid Wiburn
2556305959,56706 Nelson Street,Suite 71,Gozdowo,,PL,09-213,533-470-5703,Iolande Watson-Brown
9046062767,048 Fairfield Court,Apt 1954,Mweka,,CD,,220-711-6333,Derwin Ors
5875030674,53 Kennedy Hill,Apt 997,Huolu,,CN,,765-252-4283,Benedetto MacRorie
9836193367,44975 Straubel Park,Suite 79,Phayakkhaphum Phisai,,TH,44110,650-795-8534,Nat Maloney
6396748983,805 Blaine Avenue,Suite 30,Kloulklubed,,PW,,483-513-2850,Giustino Hakonsson
4857439816,68 Utah Junction,Apt 672,Mushie,,CD,,999-738-2427,Sheffie Gandey
5712706822,3106 Spaight Way,Room 130,Zhaowu,,CN,,761-881-2393,Delcina Woodsford
9357715878,38 Helena Crossing,PO Box 57227,Quipot,,PH,5014,944-731-5879,Othella Castagnet
2408508223,058 Superior Road,17th Floor,Sukaraharja,,ID,,295-254-1236,Jo-anne Stonehewer
1899570381,4 Birchwood Circle,16th Floor,Can-asujan,,PH,8715,775-176-0646,Sonni Gatsby
1806208105,1498 Birchwood Pass,Apt 814,Juatuba,,BR,35675-000,527-256-4856,Augusto Matchell
3452730328,31 Fisk Avenue,Room 1928,Kota Kinabalu,Sabah,MY,88661,355-378-0239,Gustave Charrisson
8007418628,72 Kropf Trail,Apt 767,Batukuta,,ID,,444-398-6448,Zonnya O Sullivan
1561423327,96 West Crossing,Room 212,Borovo,,BG,7119,177-367-1168,Billy Cardenosa
9986341973,278 Dexter Road,PO Box 48549,Ankazobe,,MG,,734-794-4721,Adena Gooden
1956009671,5006 Rieder Pass,PO Box 96480,Aygeshat,,AM,,623-978-4365,Stanleigh Bodycote
2397689367,49576 Lakewood Gardens Hill,Suite 34,Jinanten,,ID,,647-638-4364,Loni Longfield
6350706846,299 Dovetail Pass,Apt 789,Rancabuaya,,ID,,519-702-8984,Benjy Adiscot
8638771401,514 Truax Parkway,Apt 50,Gia Nghĩa,,VN,,513-957-3941,Arabella Deddum
2865803392,76075 Northfield Court,8th Floor,Xarag,,CN,,721-790-3108,Kristofor Sutherington
9483732352,1897 Laurel Drive,Apt 738,Varadero,,CU,,195-227-2268,Sunny Ballsdon
9500775476,986 Briar Crest Plaza,PO Box 74302,Motala,Östergötland,SE,591 99,324-277-3814,Casi Dicken
4244353801,5 Clarendon Point,PO Box 73702,Bantul,,ID,,652-481-6155,Clarisse Baldacco
2506450130,6 Grayhawk Place,14th Floor,Kraśnik,,PL,23-210,117-597-6121,Melamie Toffoloni
3977802291,550 Bobwhite Hill,Room 853,Bay Roberts,Newfoundland and Labrador,CA,V3B,722-947-9825,Devinne Boddy
8567923085,450 Manley Point,Apt 1632,Funehikimachi-funehiki,,JP,963-4603,155-725-3359,Elvyn Tocknell
8388114166,6 Red Cloud Center,Apt 200,Ryōtsu-minato,,JP,952-3421,880-505-1079,Cchaddie Layne
6427807951,5930 Sullivan Pass,Suite 94,Almaguer North,,PH,3707,558-583-7773,Ingunna Tunsley
2687630470,21 Vahlen Junction,Room 1941,Changliu,,CN,,135-908-9699,Isabeau Moorrud
2274868220,07724 Clemons Park,Apt 1699,Gamleby,Kalmar,SE,594 93,893-347-0462,Vivien Scudamore
8620134809,50 Westport Way,Room 1405,Aurillac,Auvergne,FR,15015 CEDEX,988-283-4521,Millisent Daugherty
4285041286,642 Birchwood Plaza,Room 1960,Adzopé,,CI,,284-320-5138,Rudie Docksey
1120961521,99 Washington Hill,PO Box 11720,Les Coteaux,Québec,CA,J7X,809-488-3780,Aliza Oliffe
3433836841,3 Corry Trail,10th Floor,Baisha,,CN,,954-644-5003,Brenden Kalker
4287886798,5 8th Street,Room 610,Ūdalah,,PS,,597-748-4209,Alfy Momery
0116502347,23 Eliot Way,PO Box 99388,Gangshangji,,CN,,763-677-4917,Bucky Keeton
6688968703,0684 Buell Plaza,18th Floor,Cimaragas,,ID,,694-148-4113,Rowena Berzon
7207395280,429 8th Terrace,Apt 429,Shifang,,CN,,277-335-8057,Virgilio Purle
4677770719,1 Spenser Point,PO Box 31373,Ziyang,,CN,,619-337-3756,Sheelah Sottell
2903979456,0 Vera Center,PO Box 57952,Dom Pedro,,BR,65765-000,984-766-1320,Clay Kieran
5935739992,042 Toban Trail,Suite 74,Ribeiro,Viseu,PT,3465-132,285-825-7669,Palmer Verni
5259849469,960 Melvin Street,13th Floor,Ulundi,,ZA,3838,585-564-5463,Linnet Stannis
6988312579,1380 Dorton Center,PO Box 68813,San Vicente,,PH,6419,645-289-8915,Rici Scoines
9882391370,83482 Di Loreto Circle,PO Box 94715,Popovo,,RU,423031,236-753-5979,Gilbertina Drewry
5780836760,2736 Mccormick Park,19th Floor,Mazańcowice,,PL,43-391,839-321-7940,Shea Tomankiewicz
8706480640,64 Londonderry Avenue,Room 124,Huanggang,,CN,,863-960-6467,Redford Margram
9394100067,9 Oxford Junction,Suite 90,Pontevedra,Galicia,ES,36164,322-260-7364,Fayette Mealiffe
9231973592,5 Valley Edge Circle,PO Box 53776,Yessentukskaya,,RU,357637,422-352-8864,Claybourne Irving
0051178389,40307 Arapahoe Center,Room 1727,Sentieiras,Santarém,PT,2200-499,481-285-0675,Allyson Streetley
1632485303,53 Village Green Circle,Room 735,Göteborg,Västra Götaland,SE,412 20,443-528-8284,Artie Kilbane
8006401357,47 Havey Point,20th Floor,Santa Lucía,,HN,,330-805-9461,Christopher Warnock
2563390532,6924 Tennessee Crossing,Room 1667,Dongtucheng,,CN,,509-220-3838,Sibelle Trengrove
9552153212,21392 Mandrake Terrace,Apt 379,Bom Conselho,,BR,55330-000,778-612-4002,Eldridge Copestake
1828922765,3191 Coleman Avenue,Suite 70,Koupéla,,BF,,595-241-6425,Juliann Donizeau
1590676513,42714 Reinke Road,Room 669,Rizal,,PH,7104,184-174-4075,Juline Walas
9161467006,05998 Randy Avenue,Suite 61,Chinch'ŏn,,KR,,640-471-4477,Linea Brereton
5295723399,4 Kenwood Point,Suite 85,Aksu,,KZ,,552-409-9907,Shelagh Luca
2544879661,189 Hoffman Center,Apt 1455,Pinhais,,BR,83320-000,109-605-0542,Wynne Downs
5804741675,2 Pennsylvania Center,Room 1831,Cradock,,ZA,5884,576-251-5785,Katee Kliche
8015943477,26548 Independence Point,Room 624,Thị Trấn Nga Sơn,,VN,,418-689-4239,Cara Gleeton
8045559152,5448 Evergreen Court,PO Box 57486,Cheongpyeong,,KR,,150-483-9585,Effie Rhubottom
9072926056,7045 7th Hill,17th Floor,El Paso,Texas,US,88574,915-479-6451,Misty Hodges
7867240063,01 Annamark Parkway,PO Box 53659,Massy,Île-de-France,FR,91309 CEDEX,114-706-6036,Golda Black
3946883443,1 Briar Crest Junction,Room 960,Huozhuangzi,,CN,,102-149-0332,Tiff Sherborne
4062558874,8105 Westend Lane,Apt 663,Sua,,ID,,758-667-1883,Clarence Sewell
0877914885,393 Hansons Plaza,Suite 35,Yangmiao,,CN,,843-447-0357,Ximenes Tomsa
9777023022,57 Anniversary Park,Apt 74,Jiefangyan,,CN,,869-557-6360,Lewiss Moseley
7335959195,921 Pond Court,PO Box 65484,Pingtan,,CN,,866-466-3993,Sonnie Brunetti
2762062683,2363 Corry Lane,Suite 61,Guluoshan,,CN,,992-226-8275,Max Jewel
5175167669,85 Declaration Parkway,Suite 50,Ol Kalou,,KE,,298-982-1534,Leola Wilflinger
2366127030,6354 Debs Plaza,7th Floor,Bayanbaogede,,CN,,459-501-0472,Caddric Ledington
5509506490,681 Onsgard Hill,Room 792,Awsīm,,EG,,799-275-1043,Brit Egleton
1080535144,15313 Elgar Drive,1st Floor,Kuala Lumpur,Kuala Lumpur,MY,50902,761-304-8769,Boyd Berrill
8003271827,88928 Haas Court,Room 129,Torzhok,,RU,172009,301-492-4738,Tabbitha Eddow
0583508219,2 Melrose Hill,Suite 23,Loanda,,BR,87900-000,111-116-2555,Rebbecca Coat
6050270856,93575 Lillian Avenue,Suite 43,Kurume,,JP,963-8846,822-898-3103,Blaire Deverille
1313679887,79 Crowley Drive,2nd Floor,Buliu,,CN,,418-636-1719,Huntley Humbell
6689273571,25 Fordem Street,PO Box 71631,Horodnytsya,,UA,,619-780-4610,Jennilee Tousy
4902679612,584 Sutteridge Plaza,PO Box 48845,Qujiang,,CN,,644-990-6076,Darnall MacNeilly
6177304931,483 Express Center,PO Box 37248,Kurumkan,,RU,671642,913-316-1178,Madelina Matveichev
2905854308,91 Quincy Place,Room 1477,Limache,,CL,,868-713-8791,Jessie Gobel
7640249597,7 Schlimgen Drive,PO Box 19231,Xiangtang,,CN,,152-663-2601,Mendel Bigglestone
3829612613,01510 Fordem Center,Room 642,Niejiahe,,CN,,685-871-2777,Kelly Fellibrand
9503662036,96456 Barnett Parkway,Apt 1024,Klumbu,,ID,,702-685-1065,Jackie Broggetti
9890834405,957 Duke Place,Suite 42,Ricardo Flores Magon,Veracruz Llave,MX,93650,318-554-1243,Mendie Crosi
5488908323,1 Hermina Way,Room 1101,Lazaro Cardenas,Oaxaca,MX,69800,770-469-9966,Valerie Minchindon
3500824242,8866 Tony Parkway,PO Box 38606,Bayan,,CN,,907-778-9328,Ibby Chevolleau
2120241449,53 Tony Avenue,8th Floor,Karangnunggal,,ID,,587-579-1936,Bax Caplan
6002210857,7 Forster Avenue,PO Box 16006,Lancaster,Pennsylvania,US,17622,717-224-3586,Letizia Worthing
3197172302,59249 Bartelt Way,15th Floor,Palca,,PE,,789-540-4987,Iormina Colloby
2328118003,70 South Terrace,13th Floor,Talospatang,,PH,2422,939-969-9389,Kiel Mc Pake
2278234455,96854 Crest Line Way,Suite 72,Bei,,ID,,602-850-5141,Theodoric Dedon
9444578046,7310 Charing Cross Lane,Apt 1326,Neyvo-Rudyanka,,RU,624170,884-416-3185,Norris Quennell
7739970832,34759 American Center,Suite 38,Louiseville,Québec,CA,J5V,750-468-9142,Mariele Gollard
3519361671,71 Hanson Plaza,6th Floor,Piñahan,,PH,1100,859-216-3110,Wilfred Rolland
1796761079,1068 Oneill Crossing,Room 59,Shanghang,,CN,,851-754-1014,Daffi Spoerl
8305771431,1297 Arkansas Circle,Room 705,Narach,,BY,,438-150-4736,Alfonso Bilston
5800186200,54 Lotheville Court,Apt 1591,Novyye Kuz’minki,,RU,301333,208-301-6936,Sibylle Izakov
8313767502,200 Stoughton Pass,Apt 691,Balucuc,,PH,2016,507-719-9932,Martin Curr
6366799431,890 Larry Crossing,8th Floor,Gombangan,,ID,,791-357-4076,Giffer Petrelli
5974122313,67726 Arapahoe Crossing,PO Box 18141,Ladan,,ID,,264-115-6844,Ezmeralda Arnke
1077142056,673 Manley Crossing,Suite 43,Banyliv,,UA,,522-848-8879,Samuel Coxon
5582251235,88 Cascade Road,15th Floor,Youguzhuang,,CN,,895-665-4272,Prescott Buzin
5968156724,1 Delladonna Road,PO Box 38471,Penglai,,CN,,484-898-9435,Adelheid Melbourn
4225707776,046 Schlimgen Lane,18th Floor,Cangkuang,,ID,,865-257-7414,Riobard Kilalea
7274011448,646 Stoughton Center,Suite 39,Aizkraukle,,LV,,672-185-4284,Marsha Durnan
4305727773,371 Weeping Birch Center,PO Box 4316,Montes Velhos,Beja,PT,7600-411,335-782-4146,Shadow Heakins
1421766604,71896 Rigney Court,PO Box 36363,Luojiaping,,CN,,848-129-6216,Lincoln Uccelli
1277369402,952 Sunnyside Road,Room 1034,Heilbronn,Baden-Württemberg,DE,74080,189-328-5146,Mallory Proschek
5991076065,5090 Summit Road,PO Box 21848,Ratilangi,,ID,,279-121-2498,Jeanne Boice
9918556099,175 Coolidge Crossing,Room 1346,Kassándreia,,GR,,951-508-1766,Vitoria Knock
7595459052,58850 Del Mar Place,5th Floor,Amparafaravola,,MG,,605-715-8451,Tedra Extance
4174941378,7 Butterfield Avenue,Suite 39,Luleå,Norrbotten,SE,972 42,345-190-7509,Edee Malenoir
9897643893,37348 Starling Circle,Apt 1673,Dióni,,GR,,625-527-6832,Wynne Bendik
2096808073,88 Manitowish Terrace,Room 434,Telengsari,,ID,,967-162-2632,Clayborne Hesser
1737399733,475 Vidon Point,Apt 1305,Psebay,,RU,352585,712-977-5764,Avril Froom
1215377088,568 Bobwhite Lane,1st Floor,Kongkeshu,,CN,,428-314-3198,Ros Quibell
9245992012,7 Mccormick Point,Room 1975,Waterbury,Connecticut,US,06721,203-568-1601,Derry Annable
7425654407,286 Bluejay Avenue,18th Floor,Yelets,,RU,399778,433-372-8930,Alia Sallenger
4381733797,3 School Street,PO Box 80067,Passos,Viana do Castelo,PT,4990-770,397-328-7004,Aloysia Billows
1183876300,820 Chive Alley,Suite 47,Novhorodka,,UA,,930-527-6115,Robers Pawlyn
6891135621,07672 Nevada Pass,PO Box 96711,Ghazni,,AF,,324-752-0094,Godart Fairebrother
4586476435,3791 Debra Pass,Apt 1509,Opinogóra Górna,,PL,06-406,608-557-9313,Claiborne Bettesworth
0116920890,881 Emmet Avenue,PO Box 968,Los Angeles,California,US,90040,714-280-9181,Malinda Ibeson
7491565026,890 Delladonna Lane,PO Box 45752,Strängnäs,Södermanland,SE,645 84,938-369-1510,Germain Whinray
7379438808,753 American Ash Park,Room 453,Sibulan,,PH,6201,890-630-1308,Nixie Dannett
5393656866,8 1st Alley,Apt 580,Obukhiv,,UA,,631-793-6233,Reena Hamblington
5499737576,6 Esch Junction,Room 963,Środa Wielkopolska,,PL,63-001,207-627-7832,Marcelia Lawes
5526456323,50 Artisan Drive,Room 1011,Malya,,TZ,,455-919-5340,Joice Ilott
2752382820,3162 Bashford Way,Suite 12,Conduaga,,PH,1084,560-995-4546,Fidelia Windrum
8664600376,00 Dunning Plaza,PO Box 32852,Culacling,,PH,4409,238-653-7612,Jorie Iskov
6624099631,66 Bashford Street,Room 907,Korsze,,PL,11-430,697-296-4403,Ashil Domengue
9769891126,607 Walton Park,Apt 1649,Mao,,TD,,400-932-2264,Sisely Seward
8183495958,520 1st Road,PO Box 72296,Patía,,CO,195509,209-309-3132,Erena Beyn
9238294917,139 Independence Street,16th Floor,Keli,,CN,,543-735-5425,Kale Piercy
6939617221,562 Logan Center,PO Box 59172,Pacov,,CZ,571 01,637-640-0977,Filippa Garrold
2601811714,04 Debs Drive,PO Box 78994,Ngou,,CM,,736-433-2179,Emily Scrine
7492355998,18 Service Court,12th Floor,Qal‘at al Andalus,,TN,,979-612-9307,La verne Bowmen
7016380610,31058 Magdeline Court,Suite 63,Nanxi,,CN,,731-110-5096,Karol Skipworth
7693226702,0 Maryland Junction,2nd Floor,Leomil,Viseu,PT,3620-165,853-302-6454,Robinet Hoyer
1295320142,805 Brentwood Alley,Apt 1978,Chernomorets,,BG,8151,100-133-8316,Halsy Canceller
4261427141,87924 Anniversary Junction,18th Floor,Nangalimang,,ID,,742-606-7757,Thedric Redemile
7774109722,6289 Mayfield Crossing,1st Floor,Fonte da Aldeia,Bragança,PT,5210-325,419-548-0460,Guglielmo Cordero
1084878771,3502 Buhler Center,PO Box 20463,Kimch’aek-si,,KP,,866-579-3634,Theresita O'Curneen
7104929665,0 Sullivan Terrace,PO Box 89762,Oslo,Oslo,NO,0773,957-264-2360,Cristal Dalgarnocht
6138841719,41 Bay Way,8th Floor,Okotoks,Alberta,CA,T1S,913-186-6214,Sherm Eliyahu
3767384507,33 Atwood Crossing,20th Floor,Orange,Provence-Alpes-Côte d'Azur,FR,84878 CEDEX,153-717-0526,Blaire Brundall
9808773095,477 Commercial Plaza,4th Floor,Tobi Village,,PW,,343-411-4446,Angel Lidgey
4545761704,3 Butterfield Center,PO Box 93740,Jiabei,,CN,,964-494-6166,Menard Yegorshin
9257909212,19380 Myrtle Parkway,Room 1180,Zhaitou,,CN,,284-148-5718,Palm Skentelbury
2417013061,30260 Shasta Place,Suite 83,Güines,,CU,,316-913-2201,Truda Muirden
9519395253,1866 Elka Drive,Apt 787,Saint-Quentin-en-Yvelines,Île-de-France,FR,78061 CEDEX,257-220-5542,Riannon Brugsma
6067134683,9 Brickson Park Alley,Suite 5,Xitianwei,,CN,,811-476-6070,Johann Evitts
9652469017,7158 Macpherson Way,Room 362,Kakan,,ID,,545-600-8608,Ferdy Archanbault
7492546521,82 Sullivan Point,Suite 47,Bác Ái,,VN,,151-998-6973,Jodee Warboys
3311234472,60 Amoth Court,Suite 92,Buenavista,,PH,8601,314-228-7774,Porter Rosenblum
4581267242,394 Old Gate Hill,Apt 179,Enjitsu,,KR,,807-969-9209,Marj Edscer
3370504790,599 Briar Crest Avenue,Suite 64,Tomakomai,,JP,882-1622,262-175-8774,Gunter Isabell
7192571415,4 Lakewood Gardens Center,Room 1206,Novogurovskiy,,RU,301382,736-878-2734,Tamiko Emslie
2600038930,6 Lighthouse Bay Point,Room 1608,Kedungdowo,,ID,,824-694-9278,Rikki Rennard
4207734384,4443 Jana Way,15th Floor,Komaki,,JP,959-1226,109-535-1875,Velma Heild
8537581038,9 Forest Run Junction,Apt 966,Breda,Provincie Noord-Brabant,NL,4829,207-291-8027,Rurik Barwis
8104582585,6630 Debs Alley,PO Box 48216,Morales,,CO,134548,259-472-0689,Carlita Aylward
5267929913,1 Hermina Hill,Room 1393,Amizmiz,,MA,,502-235-7062,Maryanna Saltwell
2956681834,69739 New Castle Road,3rd Floor,Arbaoua,,MA,,399-929-8437,Gaultiero Hall
0943540887,2 Clove Street,Suite 41,Qobustan,,AZ,,299-848-1808,Griffith Bendley
3372064402,9 Pond Drive,Apt 186,La Aurora,Jalisco,MX,48338,765-249-8499,Bobbie Daulton
8217556490,35185 Kipling Way,Room 1571,Nantuo,,CN,,169-125-9259,Stanly Grayson
9895781229,6428 Walton Court,Apt 1128,Little Rock,Arkansas,US,72204,501-844-5248,Alexei Charville
6135090178,005 Hazelcrest Court,20th Floor,Langgapayung,,ID,,942-448-5756,Gelya Royce
8222494171,6 Dakota Center,Room 1185,Sorinomo,,ID,,441-487-7083,Haroun Mullett
5293285394,3 Milwaukee Road,Suite 36,Matara,,LK,81000,749-155-3088,Angelle Lebbon
6149935663,0 Nova Court,Apt 300,Saskatoon,Saskatchewan,CA,S7W,321-488-5785,Gwennie Willbraham
4259436686,1 Brickson Park Avenue,Apt 1358,Garoua,,CM,,122-989-6851,Sibylla Lawleff
4450517822,722 Forest Run Avenue,Suite 64,Anak,,KP,,542-837-6276,Norbert Mulcahy
5899875569,6696 Golf Course Point,17th Floor,Dallas,Texas,US,75372,214-359-0767,Cati Delacoste
5413366736,677 Columbus Street,Apt 1624,Khun Han,,TH,33150,485-750-1774,Randene Howbrook
5068269808,2012 Badeau Way,8th Floor,Girardot,,CO,252437,536-452-6950,Joli Empringham
2960138988,68288 Hoffman Court,6th Floor,Boucherville,Québec,CA,J4B,790-482-8722,Gunther Daddow
5106257700,4 Emmet Park,17th Floor,Izumiōtsu,,JP,597-0095,609-223-1167,Ardyth Duinkerk
7871320734,4112 Westerfield Circle,PO Box 56002,Krajan,,ID,,657-630-5963,Anders Liddington
7130700866,6459 Graceland Avenue,Room 1561,Pogórze,,PL,43-430,114-853-4115,Courtenay Dryburgh
6460238871,35705 Butternut Avenue,Suite 57,Pulau Pinang,Pulau Pinang,MY,10550,253-152-5141,Idalina Nulty
0044773838,92318 Mariners Cove Court,Apt 313,Överkalix,Norrbotten,SE,956 93,155-956-7625,Laurens Bosley
4652351720,87 Carey Road,13th Floor,Puente Nacional,,CO,684527,560-720-1917,Cob Ferandez
1823838820,20486 Sycamore Place,Room 738,Gaoqiao,,CN,,188-499-6852,Marta Houlison
3661335308,6054 Kim Parkway,2nd Floor,Radomin,,PL,87-404,199-205-1351,Lanita Asbery
4272783602,024 Lindbergh Hill,PO Box 83258,Chenfangji,,CN,,860-343-9564,Kylynn Chaffyn
2269429397,353 Hauk Hill,PO Box 80944,São Vicente,,BR,11300-000,603-781-0838,Laurena Trevithick
5727487765,1204 Kensington Court,Suite 76,Wetzlar,Hessen,DE,35581,145-210-4353,Lenore Melbury
4689141606,91 Dawn Center,11th Floor,Qarah Bāgh,,AF,,530-449-6231,Delphine Branton
3577846410,867 Dahle Pass,PO Box 19001,Silgueiros,Viseu,PT,3515-626,913-783-7323,Eryn Silbersak
8219782161,480 Badeau Pass,Apt 774,Cibinong,,ID,,466-285-3976,Dennie Darcey
9642126222,314 Declaration Alley,Room 99,Sudo,,ID,,390-426-1845,Lionel Churchill
0787604968,6 Lake View Street,Suite 7,Biga,,PH,7413,510-262-4310,Hillel Brucker
4559355118,79 Russell Alley,Apt 1497,Estancia,,PH,5017,706-640-7425,Arleen Worviell
7126043783,6112 Elka Way,Room 1552,Veiros,Aveiro,PT,3860-346,496-620-2732,Ame Matveiko
1416515992,135 Springs Crossing,PO Box 1143,Marādah,,LY,,464-806-5110,Sophia Agass
3280077796,40 Green Junction,Suite 93,Gandoang,,ID,,825-545-1150,Jemmie McAlindon
0638008905,48802 Anderson Place,Apt 906,Machakos,,KE,,744-737-1452,Kitty Lelande
6499030635,9 Pearson Crossing,7th Floor,Mertani,,ID,,230-992-9034,Christiane Scroyton
5297688205,46 Forest Terrace,Room 1578,Hobart,Tasmania,AU,7808,904-129-9297,Jeannie Sparway
6991077143,111 Sloan Plaza,Apt 1925,Putun,,ID,,280-775-0862,Rupert Ramas
7838237319,9 Di Loreto Plaza,Apt 1058,Kliwon Cibingbin,,ID,,198-511-1122,Sal Pordal
0236933329,18 Rutledge Way,Room 295,Libertador General San Martín,,AR,5771,758-846-3734,Ezekiel Burgoin
9996997448,484 Hoepker Alley,PO Box 64563,Laoliangcang,,CN,,640-569-3384,Meir Tomaszewicz
2537362039,73 American Court,PO Box 4758,Örebro,Örebro,SE,701 81,180-207-1267,Jenny Swadlinge
1090801971,90399 Huxley Hill,Apt 643,Dazhou,,CN,,593-851-0157,Samantha Gabotti
8324385592,01 Glacier Hill Center,Apt 350,Cincinnati,Ohio,US,45999,513-246-4908,Bryanty Keigher
5705287577,4 Tennyson Street,Room 1908,Yekaterinovka,,RU,692974,654-694-1588,Anton Bull
2429997118,4 Gina Way,Room 151,Pontivy,Bretagne,FR,56309 CEDEX,514-639-6031,Edeline Pierson
5017021280,134 Carioca Center,PO Box 20952,Shuozhou,,CN,,543-759-5679,Heywood Girt
2633822355,221 Vermont Hill,Suite 16,Shangmachang,,CN,,606-899-8338,Minna Leetham
2597828190,448 Crownhardt Hill,12th Floor,Suphan Buri,,TH,96120,673-560-2224,Gideon Gouinlock
1860541402,080 Ronald Regan Trail,Suite 1,Huilongshan,,CN,,826-756-3447,Davide Le Claire
2732303836,73071 Milwaukee Point,Apt 1834,Vilhena,,BR,78995-000,236-962-2029,Ethe Atack
1501135023,629 Monica Point,Room 677,Rodniki,,RU,301086,738-195-1195,Madelaine Liddel
4910280405,5 Oneill Drive,PO Box 21718,Pampas Chico,,PE,,576-258-6911,Bili Kalaher
4904057694,35 Claremont Terrace,Room 1584,Sekartaji,,ID,,972-580-0940,Pearl Camellini
0837068231,17 Ramsey Center,PO Box 33601,Xingguo,,CN,,900-369-8753,Binnie Verralls
1757039554,98612 Packers Way,Suite 47,Bento Gonçalves,,BR,95700-000,390-118-5249,Tally Tolfrey
6691246314,11 Pearson Trail,19th Floor,Neftegorsk,,RU,446600,506-980-3576,Gray Shervil
9865559358,1 Hanover Drive,Apt 767,Saripin,,ID,,762-387-6107,Callie Walkingshaw
4862100562,7 Monterey Way,Apt 1348,Araripina,,BR,56280-000,438-555-6693,Grenville Hatcliffe
4552545280,4 Riverside Circle,Suite 63,Šardice,,CZ,696 13,524-992-1999,Harrison Geer
0787933511,3 Towne Point,Suite 46,Zhicheng,,CN,,236-199-0899,Clio Eyton
2679348125,3 Fuller Court,Apt 1662,Adirejo,,ID,,436-328-1113,Carlyn Rohfsen
3032669758,7 Maple Wood Alley,5th Floor,Alhos Vedros,Setúbal,PT,2860-010,179-155-2400,Dollie Clague
4249972593,7247 Farmco Plaza,Apt 319,Tabia,,MA,,791-502-7755,Camila Bowness
7303530282,82089 Mayer Center,Apt 1955,Gorgoram,,NG,,925-245-2026,Corrie Stebbings
6944971674,02368 Oriole Court,Suite 74,Tvarožná,,CZ,664 05,655-505-1908,Sim Lawdham
2420409809,861 Golf View Avenue,PO Box 7970,Sundbyberg,Stockholm,SE,174 49,615-973-5743,Cariotta Knappitt
1031885684,53 Saint Paul Circle,12th Floor,Panyindangan,,ID,,976-421-4227,Carly Scalia
5917812756,7902 Autumn Leaf Place,Room 1809,Bherāmāra,,BD,7042,639-575-6574,Jorie Wands
4128449350,4185 Roxbury Crossing,PO Box 30010,Chekmagush,,RU,452200,276-939-3540,Lydie Hathaway
3984017995,861 Northview Alley,Suite 48,Baton Rouge,Louisiana,US,70820,225-927-9657,Perl Wanless
4142684957,0 Hagan Avenue,13th Floor,Kudymkar,,RU,619001,671-618-1482,Norene Joburn
7405818412,01012 Arrowood Trail,PO Box 31476,Prostřední Bečva,,CZ,756 56,768-828-8774,Ariel Woolway
8349697806,329 Ridge Oak Park,Apt 722,Cipinang,,ID,,286-407-4155,Shayne Schole
6894407738,5607 Porter Drive,Room 1266,Changchun,,CN,,746-546-6356,Bordy Baylay
8925704781,761 Morning Trail,Room 1004,Bassar,,TG,,433-674-6581,Oberon Pemberton
6934368479,96927 Eastlawn Crossing,9th Floor,Hechun,,CN,,543-509-0776,Aline Hessay
4174639469,26938 Carberry Trail,Apt 561,Novo Cruzeiro,,BR,39820-000,200-318-1542,Jody Fincham
8862080549,88422 Coleman Point,Apt 1312,Padangsidempuan,,ID,,722-580-3954,Anna-maria Kornacki
1877491543,6256 Mockingbird Hill,PO Box 57242,Xintaimen,,CN,,292-806-0400,Shelbi Hechlin
6729492864,806 La Follette Street,12th Floor,Pemberton,British Columbia,CA,E1W,865-321-5909,Scott Cardero
2731999306,6160 Bellgrove Junction,2nd Floor,Chenzhou,,CN,,472-702-4128,Bevvy Massei
7176514399,589 Sauthoff Hill,Room 111,Rychtal,,PL,63-630,726-733-0850,Peyton Roulston
4824531772,24 Springs Parkway,PO Box 77218,Qiantang,,CN,,340-868-2931,Andras Hoyes
6854407788,09 Sunbrook Center,PO Box 87884,Orléans,Centre,FR,45063 CEDEX 2,645-926-7612,Nat Dumingo
4629287701,4 Randy Place,Apt 1749,Drammen,Buskerud,NO,3027,310-228-1233,Lynde Cornick
2746879832,52 Lake View Court,Room 1785,Linköping,Östergötland,SE,587 24,665-409-3721,Brooks Ramsden
1239471343,9 Dexter Terrace,PO Box 94934,Naikoten Dua,,ID,,784-521-8989,Aidan Whistance
9724593126,7 Toban Plaza,Room 1629,Hualin,,CN,,782-565-6270,Zachary Deetch
6366092842,33 Towne Center,Suite 2,Wuma,,CN,,336-415-4022,Roselia Bish
2354859961,73625 Briar Crest Drive,Room 550,Canguaretama,,BR,59190-000,465-126-8448,Karilynn Gerrish
9634160468,9 Prairieview Drive,Apt 1746,Andahuaylillas,,PE,,395-324-8523,Pansie Oxbie
1940410762,6 Elgar Center,PO Box 23676,Los Angeles,California,US,90065,213-540-1585,Auroora Giaomozzo
1179301226,66461 Columbus Road,Room 1164,Néa Karyá,,GR,,761-455-5104,Virginie Figliovanni
3178202587,7576 Thierer Terrace,19th Floor,Moyamba,,SL,,542-611-1794,Keane Cain
1540561879,5 Birchwood Pass,Room 538,Daping,,CN,,524-972-1908,Eduard Edgington
7457434682,2301 Corry Court,1st Floor,Kyperoúnta,,CY,,535-967-8757,Esteban Paulitschke
4091395228,09468 Beilfuss Place,Room 640,Abashiri,,JP,336-0926,237-708-0286,Gwendolin Wheelband
9035532414,90699 Northridge Avenue,Apt 278,Lagoa Santa,,BR,33400-000,832-421-1942,Willetta Kornacki
1048473104,7 Fisk Alley,PO Box 78067,Sumenep,,ID,,892-871-4130,Chrysa Champagne
2275316787,1 Kinsman Court,PO Box 79947,Dapitan,,PH,3307,732-853-6748,Russell MacGillivray
9679688763,760 Longview Crossing,Room 469,Farroupilha,,BR,95180-000,463-276-5092,Garry Cotes
5683273986,72796 Center Crossing,Room 790,Martapura,,ID,,974-807-2647,Emmalynn Avramov
8995248645,269 2nd Road,PO Box 12674,Fangcun,,CN,,739-303-7016,Trev Bollans
5410238931,673 Scott Alley,Suite 92,Qincheng,,CN,,859-324-5074,Lek Lendon
9619683692,5 Di Loreto Park,9th Floor,Hulei,,CN,,725-352-1367,Garrot Gofton
4978623316,3 Mariners Cove Avenue,Suite 29,Krajan,,ID,,337-101-5616,Osbert Stille
7731884643,151 Ohio Hill,Room 1807,Qiagai,,CN,,192-872-0635,Curry Henric
6325623762,2173 Hovde Center,PO Box 22600,Portão,,BR,93180-000,302-347-4717,Katharyn Tadman
7039399849,328 Graceland Center,Room 942,Centralniy,,RU,309534,903-696-5862,Vincenty Vernham
3377225781,3 Oxford Way,PO Box 2054,Buenavista,,PH,8601,989-399-4930,Reece Tenney
5286946992,6 Fallview Junction,PO Box 85430,Longxi,,CN,,820-784-4038,Petronille Casier
4823120485,81524 Hanover Junction,PO Box 47516,Loreto,,AR,3483,299-542-9774,Aguistin Halston
2551983835,71 Ilene Pass,15th Floor,Kamloops,British Columbia,CA,H9P,947-612-5592,Daniel Jealous
4939207420,6759 Shopko Way,Apt 1966,Morje,,SI,2314,202-403-3125,Skippy Rigge
4903552446,80 Northland Court,12th Floor,Lautoka,,FJ,,122-206-4601,Abbi Hauger
7353783605,6565 Warner Point,Apt 1531,Topdac,,PH,2612,175-133-6758,Ambrose Banane
4899303270,0 Donald Terrace,Suite 51,Calaya,,PH,1600,644-909-3818,Silvan Dieton
1532093365,932 Ridgeway Junction,PO Box 56094,Denton,Texas,US,76210,214-186-1333,Friedrick Gonnely
3898147150,7269 Main Plaza,19th Floor,Mayang,,CN,,760-456-3719,Elysia Le Lievre
0096048069,0461 Bartelt Court,Apt 549,Genting,,ID,,511-704-0319,Lotte Merryweather
2480768961,02 Mesta Way,PO Box 22805,Canggou,,CN,,352-270-1591,Elle Itzkovwitch
2570203866,27 Heath Point,5th Floor,Tashtagol,,RU,652993,690-779-7256,Corabelle Ramshaw
5129057376,65619 Forest Dale Avenue,8th Floor,Shurugwi,,ZW,,923-262-5944,Brynne Dallander
8268785934,130 John Wall Place,PO Box 48174,Lenger,,KZ,,511-565-6990,Liliane Strooband
3718875268,7 Autumn Leaf Terrace,Suite 70,Songculan,,PH,7120,476-873-5604,Davon Blaschke
6595241889,8 Bellgrove Drive,12th Floor,Vredefort,,ZA,9595,529-494-5737,Kali Peyro
4266882742,606 Hoepker Lane,Room 1558,Selmes,Beja,PT,7960-155,764-495-5191,Edmund Pharrow
4189175390,6 Shelley Alley,Apt 907,Grabów,,PL,99-150,733-180-3747,Travers Rosenstein
5265443800,1 Jackson Trail,17th Floor,Tengqiao,,CN,,399-300-2932,Willem Paulucci
5647105254,712 Spenser Avenue,13th Floor,Thành Phố Nam Định,,VN,,244-251-0244,Vinita Smy
7919440602,57 Cottonwood Junction,5th Floor,Kuching,Sarawak,MY,93150,148-868-7632,Broderick Worsfold
0302615903,612 Cardinal Plaza,PO Box 40426,Minakuchi,,JP,949-1738,136-538-8190,Fred Gratrix
2416473352,18070 Mandrake Trail,Room 794,Saku,,JP,964-0944,140-898-9530,Elmore Scuse
0480820740,85 Judy Circle,Room 1041,San Luis,,GT,17009,381-398-5571,Candie Brock
7646716049,06 Annamark Crossing,Apt 702,Beberibe,,BR,62840-000,105-770-2207,Hagen Crebbin
9380903952,8 Homewood Street,Apt 1306,Kobrinskoye,,RU,188355,562-604-7538,Thayne Gaunt
6075667849,4044 Glacier Hill Place,PO Box 92239,San Vicente,,CR,11401,548-787-1413,Lula Kennea
6529540644,77 Karstens Pass,Apt 904,Angoulême,Poitou-Charentes,FR,16015 CEDEX,727-633-6371,Eleonore Wilderspoon
9278254606,6 Havey Court,PO Box 62485,Xingdian,,CN,,580-688-6393,Benita Mottley
2456606108,3 Blue Bill Park Circle,12th Floor,Megalópoli,,GR,,539-430-8714,Cherye Tiner
5420982226,18401 Loftsgordon Way,Room 1404,Foumban,,CM,,499-990-7596,Seumas Leel
4795933642,6 Village Parkway,Apt 620,Wuluo,,CN,,724-528-8954,Clarance Silverstone
0149757689,91101 Kropf Hill,Room 1098,Rumelange,,LU,L-3755,982-667-1801,Nancie Petranek
1163413631,29538 Kim Center,Apt 1318,Pýli,,GR,,213-233-5949,Jacqui Garnson
1192966309,1 Marquette Crossing,PO Box 80016,Yeniugou,,CN,,261-548-5955,Nicolle Size
8424589483,503 Independence Circle,PO Box 12771,Bamenda,,CM,,267-182-1874,Zeke Epdell
5800656797,6 Loeprich Crossing,6th Floor,Komga,,ZA,4950,958-317-8846,Vallie Brattan
5398460307,27 Cascade Hill,4th Floor,Cihaur,,ID,,234-622-0981,Fayette Hanington
9781732415,55 Farmco Lane,Room 1735,Panacan,,PH,5032,713-998-5178,Sorcha Slowan
7327999477,1183 Lawn Circle,4th Floor,San Miguel,Mexico,MX,51690,347-443-8652,Sarah Shovell
6390983832,34840 Armistice Park,Room 1333,Jackson,Mississippi,US,39204,601-108-1053,Aviva Himpson
7912609237,14 Rutledge Junction,Suite 15,Langádhia,,GR,,662-542-9515,Jany Tarney
1499445946,183 Westend Terrace,Suite 41,La Mesa,Mexico,MX,51462,195-920-1752,Charlotta Isacke
1121910254,6 Raven Center,Room 590,Ban Huai Thalaeng,,TH,30240,903-296-7605,Petey Billin
8770666342,026 Hovde Parkway,Suite 19,Baquero Norte,,PH,3322,622-638-9558,Silvain Eeles
4650862620,03 Sullivan Circle,PO Box 46912,Machakos,,KE,,442-321-8268,Sondra Petz
8489563977,0465 Raven Street,Room 1356,Dayr Abū Ḑa‘īf,,PS,,856-437-1534,Codie Paddingdon
0805927603,274 Vidon Junction,PO Box 66644,Jiangxiangzhen,,CN,,743-956-5592,Abelard Grahlmans
3901320318,100 Aberg Crossing,Apt 1759,Melaka,Melaka,MY,75610,627-693-3940,Clarie McCaskill
0339705531,154 Farragut Circle,Room 70,Mauraro,,PH,4515,678-647-7647,Graeme Fontaine
0781329817,46745 Village Green Pass,Room 925,Zaragoza,,PH,3110,241-780-2430,Lanna Foucar
4227731577,0770 Eggendart Street,Room 101,Maslog,,PH,6820,601-773-0446,Juliana Jeste
6603097478,3271 Westend Way,PO Box 95729,Avarua,,CK,,540-190-2505,Doti Hoopper
5788621526,01982 Sutteridge Trail,Room 1420,Seka,,TH,43150,974-386-2868,Grantley Govey
3357475421,92024 Mitchell Road,Suite 3,Kalian,,PH,7037,913-456-1018,Brear Gwinnell
5351060477,193 Stone Corner Terrace,Suite 91,Chengtou,,CN,,311-939-3544,Eve Bottlestone
8999869547,906 Fulton Hill,PO Box 12565,Cipatat,,ID,,475-951-2183,Thorstein Atthow
6161410516,699 Merry Place,Room 403,Boavista,Braga,PT,4905-014,418-162-0058,Merrie Thurston
7694275499,220 Daystar Crossing,14th Floor,Zamora,Castilla - Leon,ES,49003,291-628-5925,Justine Esselin
5272294718,27 Bunting Court,Room 836,Cuijiamatou,,CN,,917-584-4437,Kelci Lightfoot
3884106155,9 Bunting Center,Apt 1096,Žebrák,,CZ,263 01,536-815-9699,Yolanda Checketts
7922970153,2 Logan Court,Apt 627,Sabbah,,SY,,300-816-1958,Quentin Furphy
9859579636,99194 Nelson Crossing,PO Box 22695,Rizal,,PH,7104,366-965-6363,Jerald Rourke
0033764417,6537 Golf Course Terrace,PO Box 41091,Rochester,New York,US,14619,585-952-2747,Leslie Dudny
6340866662,3 Monica Point,PO Box 65446,Huambalpa,,PE,,737-720-2700,Alix Piner
3273694327,0 1st Street,Apt 994,Hägersten,Stockholm,SE,129 55,633-199-5381,Whitney Parffrey
3494975302,02 Dakota Trail,Apt 1839,Huangze,,CN,,259-799-0951,Cirillo Durgan
9691146487,99 Mariners Cove Road,PO Box 11665,Jardim da Serra,Ilha da Madeira,PT,9325-124,745-808-8394,Samantha Wildber
1988302285,2626 Mallard Park,Room 1613,Berkovitsa,,BG,3500,144-832-4640,Demetra Bleakley
8820823527,9 Eagle Crest Plaza,PO Box 57516,Longjiang,,CN,,127-871-6257,Fayina Guyers
0207482373,6 Stephen Circle,Suite 58,Chishan,,CN,,327-579-1334,Aimil Borel
2163108287,09468 Dovetail Way,Apt 1450,Zhuhu,,CN,,628-445-1184,Valery O'Luby
2562592425,1859 Oakridge Road,Suite 59,Tupã,,BR,17600-000,898-344-9508,Dianemarie Friskey
0583055842,36 American Ash Court,Apt 1339,Sibulan,,PH,6201,291-907-9306,Devonne Crack
6957343197,740 Arrowood Street,Room 1078,Daishan,,CN,,344-205-4247,Cinnamon Sedgeworth
1890594504,74 Dovetail Court,PO Box 41534,Mandi Bahāuddīn,,PK,50470,873-699-2263,Justis Pauler
8796553693,1465 School Circle,Suite 52,Nedašov,,CZ,763 32,226-738-5308,Gerda Taggart
1430657944,4 Little Fleur Place,1st Floor,Farshūţ,,EG,,555-911-1325,Llewellyn Andrioli
9982729055,55661 Kingsford Parkway,Apt 465,Ubiaja,,NG,,997-251-2694,Burgess Yakovich
7172851420,0954 Del Sol Plaza,12th Floor,Shilovo,,RU,391545,123-561-0208,Chantal Waddilow
4049575310,89291 Johnson Drive,Room 51,Laleng,,ID,,804-320-9942,Elisabeth Longland
7441112877,0538 Lindbergh Court,Room 1437,Telč,,CZ,588 62,506-763-7398,Eb McWhan
4714851128,8 Comanche Parkway,PO Box 92047,Fucun,,CN,,222-639-8763,Dede Ivakhno
5929961719,851 Hayes Alley,Room 182,Izumi,,JP,993-0031,551-273-3770,Orelie Garthland
9227112855,7759 Lakewood Court,12th Floor,Ludbreg,,HR,42230,401-275-5273,Coreen Goutcher
6258864619,8282 Hooker Road,PO Box 47993,Yatunpu,,CN,,593-810-4006,Kristy Woolf
6682829892,141 Lakeland Street,PO Box 85633,Donggaocun,,CN,,130-185-1899,Chris Tofts
3427733904,98945 Beilfuss Crossing,Suite 95,Kabare,,CD,,947-866-9263,Baird Janz
2763038891,56 Grim Street,Suite 91,Morelos,Michoacan De Ocampo,MX,61609,177-829-4967,Gilemette Bulfoy
7990380218,64 Sunnyside Street,Room 1935,Dongjiahe,,CN,,145-301-3934,Jessee Giorgietto
8156738829,9 Harper Terrace,6th Floor,Nancun,,CN,,374-411-2915,Farlee Aizikowitz
1154400697,52 Bartelt Center,16th Floor,Angers,Pays de la Loire,FR,49937 CEDEX 9,482-384-3607,Harmon Ferrie
7598479348,74668 Rusk Circle,7th Floor,Banyuurip,,ID,,330-605-6567,Flss Hartwright
9165377486,84197 2nd Crossing,PO Box 11152,Managua,,NI,,687-693-0027,Weber Ianelli
0062918249,1 Bowman Pass,20th Floor,Loandjili,,CG,,646-290-8540,Kaye Bortoloni
1186524472,7621 1st Lane,Apt 1818,El Cantón,,VE,,877-570-5968,Norbert Darwood
8426983219,9 Farmco Center,PO Box 27578,Pa Bon,,TH,93170,678-299-8721,Fae Izsak
6092301768,64 Crescent Oaks Trail,Room 231,Tadine,,NC,98828,379-751-4442,Micheil Gookey
4746947724,7 Erie Alley,PO Box 80795,Ballivor,,IE,D17,227-484-6458,Robinson Boyet
7011937072,1 Valley Edge Drive,Room 1867,Pamotan,,ID,,674-865-3746,Eli Yaneev
5871933807,0 Twin Pines Lane,Apt 787,Neyvo-Rudyanka,,RU,624170,614-646-5745,Abramo Pankethman
2167862156,24 Barnett Trail,Apt 203,Cravo Norte,,CO,812019,586-339-0333,Evvy Darington
3922869106,017 Russell Court,Suite 90,Huwei,,CN,,560-361-8374,Minnie Felipe
4427937233,1812 Kedzie Place,Room 1133,Néma,,MR,,127-519-2129,Simona Chisolm
3134633957,0503 Aberg Place,Apt 619,Bryukhovychi,,UA,,153-569-9377,Iago Iacovolo
4249379248,5201 Cardinal Place,Suite 38,Mont-Saint-Aignan,Haute-Normandie,FR,76821 CEDEX,765-819-9381,Stuart Onians
9660445202,52 Sheridan Avenue,Room 1355,Cimara,,ID,,683-944-2394,Dru Mertel
1414005806,8 Center Drive,Suite 29,Angra dos Reis,,BR,23900-000,624-328-9869,Pacorro Bold
0207211663,98 Anniversary Avenue,Apt 1700,Bajawa,,ID,,348-970-5801,Ive Gregolin
5589354897,83383 Anniversary Court,PO Box 53668,Motala,Östergötland,SE,591 71,607-743-8908,Margaretta Hampshaw
7182890240,8 Crescent Oaks Hill,Apt 1272,Fenghua,,CN,,568-364-0034,Ainslie Ortiger
5185464674,1445 Talmadge Drive,Suite 77,Jefferson City,Missouri,US,65105,573-360-0354,Karim Tilsley
1008353582,67242 Rieder Avenue,Room 308,Vratsa,,BG,3053,691-370-7065,Nap Badini
5592051816,595 Oakridge Avenue,Apt 495,Lokea,,ID,,946-859-7743,Merrick Mawditt
9941887802,11 Porter Place,Room 1403,Rokytnice nad Jizerou,,CZ,513 01,185-511-4698,Tommy Argente
7623847236,55510 Gina Court,PO Box 41625,Täby,Stockholm,SE,183 30,379-262-3776,Sergeant Jillins
8544398472,34 Westerfield Hill,PO Box 22788,Ilandža,,RS,,698-258-2644,Marrilee Ellesmere
4671381125,6449 Helena Pass,Apt 23,Huiyi,,CN,,894-242-2773,Seward Dabnot
7578165437,95768 Stephen Park,PO Box 34846,Shibi,,CN,,970-921-2530,Robenia Tonbye
4204136834,87368 Sunbrook Hill,14th Floor,Baytā al Fawqā,,PS,,186-237-5104,Troy Percifull
9409819741,4171 Twin Pines Park,Suite 74,Zhaoxian,,CN,,884-892-9014,Noland Kimmins
1765137241,85 Veith Way,PO Box 82808,Yāsūf,,PS,,413-205-8120,Hertha Mcimmie
5455540319,987 Nevada Lane,PO Box 80908,Chavárion,,GR,,700-549-6823,Kizzie Oldfield
4157117573,6 Westport Pass,PO Box 14335,Jinchang,,CN,,172-276-8307,Minna Jammes
0350844895,315 Canary Lane,Apt 1101,Pasembon,,ID,,722-916-3103,Josefina Walasik
1699542767,9660 Mallard Point,Suite 2,Washington,District of Columbia,US,20210,202-917-4939,Ware Merchant
8924675524,3 Village Green Crossing,Suite 85,Jingzhou,,CN,,801-996-5056,Carr Meah
9383820861,918 Dawn Avenue,Apt 1067,Oued Lill,,TN,,294-158-6384,Kris De Benedetti
8190370073,846 Columbus Trail,Room 1905,Bibiani,,GH,,568-841-3607,Shina Peiser
0988808099,2 Bowman Point,Suite 3,Fraga,Porto,PT,4625-445,744-405-4333,Gianna Courtin
4842414200,740 High Crossing Parkway,Suite 16,Landvetter,Västra Götaland,SE,438 21,566-599-8164,Tasha Stubbe
2352674158,117 Mitchell Terrace,PO Box 39951,Navashino,,RU,347417,431-828-9915,Penelopa Prati
5781325328,0669 Buena Vista Pass,PO Box 57929,Shucheng Chengguanzhen,,CN,,868-838-2582,Tanner Olensby
0120608650,325 Garrison Court,Suite 78,Zhoushan,,CN,,976-849-8235,Ginny Prate
9425795967,20 Pond Drive,19th Floor,Koźle,,PL,47-280,542-428-1474,Bobbye Bennen
3465228472,05 Jay Way,Suite 1,Pantin,Île-de-France,FR,93691 CEDEX,502-152-4660,Christopher Trevenu
7375618569,6178 Eastwood Park,19th Floor,El Fasher,,SD,,805-834-0318,Sanson Yukhov
5227583927,4822 Oakridge Center,Room 1372,Panite,,ID,,980-439-7194,Clem Zambon
8527829088,66 Twin Pines Crossing,PO Box 34432,Bolesławiec,,PL,98-430,465-182-4373,Fayina Dearell
7061428074,579 Sugar Circle,Apt 671,Beaverton,Oregon,US,97075,503-589-4899,Rhody Godfrey
4873807166,670 Butternut Court,Room 412,Nazrēt,,ET,,495-759-3990,Lena MacDonell
1417108061,7471 Saint Paul Road,PO Box 37949,Richmond,Virginia,US,23285,804-752-1365,Kirk Ogers
0965058573,11 Upham Hill,PO Box 29138,Limbe,,CM,,308-452-9713,Conn Clive
3337369383,1 Cascade Terrace,Room 1172,Turka,,RU,649743,483-940-1302,Osmond Akroyd
5571369787,43113 Morning Terrace,PO Box 79304,Jing’an,,CN,,261-471-8787,Emlynn Bowhey
3149163803,03 Moulton Circle,Suite 67,Hanyuan,,CN,,820-501-1758,Camille Prattin
7376863079,5378 Lighthouse Bay Alley,Room 1669,Nanchoc,,PE,,257-372-6426,Emanuele Stendell
8626397836,66 Prentice Hill,16th Floor,Inuyama,,JP,938-0043,229-360-3999,Nannette Aloshikin
6788349096,17 Oak Valley Road,Room 1970,Neundeut,,ID,,541-710-1887,Bartlet Marcroft
7484155454,9 Graedel Crossing,Apt 1271,Rushankou,,CN,,570-172-8059,Luca Degoey
1476186707,20996 Farragut Hill,20th Floor,Huainan,,CN,,898-676-7885,Abbye Oury
5462553560,190 Shoshone Lane,PO Box 42758,Jianfeng,,CN,,708-717-4902,Leslie Castaneda
1970771925,99 Larry Center,PO Box 68221,Zala,,CN,,500-461-8936,Kimmie Clare
3106573880,6 Eliot Center,15th Floor,Balīlā,,JO,,704-815-8477,Anita Gasticke
6915128050,87789 Texas Junction,Suite 85,Tanarara,,ID,,904-907-0237,Camey Kinze
4808265605,4740 Myrtle Terrace,Suite 8,Nam Khun,,TH,34260,133-798-7801,Piotr Petrescu
4651571662,542 Graedel Point,Suite 20,Qarāwat Banī Zayd,,PS,,697-434-9374,Deana Drinan
5655055716,4127 Lukken Alley,12th Floor,Niagara Falls,Ontario,CA,L2J,923-114-7950,Nathaniel Haigh
2821787359,031 Lunder Parkway,Room 933,Geumpang,,ID,,166-486-8099,Elihu Pilcher
8605826630,6 Graedel Crossing,Apt 445,Yuscarán,,HN,,588-694-3740,Harley Flaune
8156135342,79 Weeping Birch Way,5th Floor,Novyy,,RU,431373,818-868-5926,Ginny Rennox
3207376525,7631 New Castle Parkway,Apt 1855,Berbek,,ID,,230-161-9746,Hillary Hepher
8761118583,87 Linden Alley,Room 477,Beloyarskiy,,RU,624030,548-411-9143,Moria Gorbell
8109215106,73 Shelley Alley,Apt 464,East Migpulao,,PH,9712,741-442-3847,Xavier Cadreman
1322231923,8650 Holy Cross Alley,Suite 23,Mamponteng,,GH,,806-717-8575,Claudie Francescone
0685095274,22 Cardinal Park,Room 1319,Yangyuan,,CN,,872-765-4141,Ezri Lanigan
0059382708,7 Novick Street,Room 1911,Masumbwe,,TZ,,459-786-1946,Iago Emblen
4558728964,9 Alpine Trail,Apt 1422,San Vicente de Moravia,,CR,11403,915-512-6594,Caldwell Cholton
4258280534,43 Cordelia Avenue,Room 1848,Arbois,Franche-Comté,FR,39605 CEDEX,461-836-0509,Griselda Ivoshin
3107752959,11 Garrison Road,Apt 1720,Três Pontas,,BR,37190-000,395-752-7668,Becka Lathleiffure
7888021603,737 Manufacturers Street,PO Box 3251,Vel’sk,,RU,165155,822-577-2564,Annissa Blakeley
3631354134,171 Clyde Gallagher Pass,Room 11,Pyay,,MM,,589-210-8288,Wanids Bradberry
3910244068,3395 Center Center,Room 1253,Hadžići,,BA,,502-455-3711,Geoffry Saulter
8351907553,2 Bonner Park,PO Box 62665,Orlovo,,RU,396130,524-701-6851,Liuka Dadley
9760073080,40267 Anniversary Alley,Suite 81,Enniskerry,,IE,D18,183-422-8598,Matthaeus Bengall
7761408556,3883 Texas Avenue,Room 453,Kharabali,,RU,416010,458-736-1925,Genvieve Spowart
3104541469,190 Sachs Plaza,Room 696,Paris 02,Île-de-France,FR,75096 CEDEX 02,406-995-8575,Matteo Boyd
5327323102,688 Sunnyside Avenue,Room 1320,Al Jubayhah,,JO,,860-397-6635,Margaretha Rickhuss
7648364549,270 Waxwing Court,Apt 1441,Polańczyk,,PL,38-610,350-306-7235,Bessie Lotwich
5209325202,75288 Vidon Crossing,Suite 77,Comodoro Rivadavia,,AR,9000,787-916-4865,Drucy Senescall
5610291631,9804 Lunder Crossing,Apt 1321,Baška Voda,,HR,21320,591-871-3858,Jeremiah Parkhouse
0144282607,296 Hauk Alley,11th Floor,Concepcion,,PH,7213,636-650-9827,Royall Mallebone
7627363454,07 Straubel Trail,Suite 7,Mengmeng,,CN,,616-425-0529,Edan Jaeggi
8745978336,1174 Dunning Pass,3rd Floor,Piaocao,,CN,,266-905-7715,Jaymee Buttery
1966205384,20 Mariners Cove Trail,PO Box 24201,Gading,,ID,,203-869-9599,Darb Delamar
7619506535,40136 Sage Court,Room 704,Bayan Uula Sumu,,MN,,507-823-0163,Neils Cicci
8839978283,7983 Prentice Way,Suite 40,St. Thomas,Ontario,CA,N5R,585-234-8141,Gaven Freyn
2129286208,8559 Hermina Road,Apt 497,Khorostkiv,,UA,,368-632-9522,Vi Jako
1986717429,2846 Rusk Parkway,1st Floor,Huambalpa,,PE,,218-838-0930,Llewellyn O'Feeny
7823912457,27 Oak Plaza,Suite 25,Magisterial,Chihuahua,MX,32350,230-870-9918,Edwina Pietersma
6972206391,8666 Mendota Point,Room 664,Bol’shoy Karay,,RU,412334,617-212-7746,Hendrika Langcastle
6033693981,39958 Sommers Hill,Suite 50,Teseney,,ER,,669-310-8383,Dolly Chillingworth
8055835985,168 Graceland Plaza,Room 36,Akzhal,,KZ,,138-223-7555,Norton Kopmann
3371113248,2 Petterle Avenue,PO Box 29505,White Rock,British Columbia,CA,V4B,426-488-8599,Linc Attaway
9068428454,5178 Jay Point,PO Box 2204,Paris 01,Île-de-France,FR,75032 CEDEX 01,876-542-2218,Michaelina Fulloway
0142694649,6281 Mccormick Parkway,Room 665,Gaizhou,,CN,,777-431-8852,Thomasina Sheahan
7064138395,37 Fisk Road,Apt 721,Lopatyn,,UA,,329-749-2120,Zonnya Oblein
4794857659,0 Ramsey Circle,Suite 33,Sa Pá,,VN,,693-643-7625,Dorita Schwand
6110146536,1559 Welch Point,Room 61,Mojocoya,,BO,,297-832-2962,Gratia Crouch
8133107245,4 Starling Hill,16th Floor,Skole,,UA,,334-861-3815,Weidar Cuttell
5015262205,14224 Vera Court,PO Box 91732,Sa Kaeo,,TH,45250,184-725-1666,Elspeth Hurdle
5432269120,805 Coolidge Parkway,PO Box 58978,Qing’an,,CN,,875-987-1201,Sisile Gristhwaite
1950626431,795 Sycamore Point,PO Box 62872,Caobi,,CN,,735-306-8730,Ansley Abberley
7109070581,4944 Lawn Junction,Room 1408,Oliver,British Columbia,CA,E5L,838-167-5626,Germain Lauks
5635661084,37079 Melrose Park,Apt 1734,Brondong,,ID,,938-883-4219,Andromache Northleigh
6612823712,5 Dunning Point,2nd Floor,San José de Colinas,,HN,,901-444-5262,Gib Turvie
9694232902,76758 Kinsman Lane,Suite 81,Sulahan,,ID,,854-737-6106,Shirley Attaway
4856070991,97 Harbort Lane,Suite 25,Zili,,CN,,487-536-6489,Ilaire Molian
7028034739,6 Shoshone Plaza,Room 1997,Huddinge,Stockholm,SE,141 53,605-134-5618,Bea Waldrum
5195294151,4456 Schiller Trail,PO Box 51994,Limbe,,CM,,182-726-6934,Morena Arthars
4285151952,4 Badeau Court,19th Floor,Abuko,,GM,,473-344-5200,Ripley Sans
0663100933,8 Welch Pass,Room 1296,Manisi,,CN,,682-539-0201,Rosana Zmitrovich
4623871304,90 Nobel Drive,PO Box 7148,Shishan,,CN,,218-474-2529,Tarrah Van der Brug
9334026383,688 Kipling Crossing,PO Box 52326,Gibara,,CU,,396-839-8466,Dav Jervoise
7715219290,067 Rockefeller Point,Apt 406,Sergelen,,MN,,348-446-4904,Hermie Skelhorn
3147096149,85260 Caliangt Place,Suite 32,Priboj,,RS,,656-222-6611,Cassey Clyant
6671061874,4512 Mifflin Alley,Suite 97,Uhniv,,UA,,910-578-5953,Elise Bauchop
7886529758,03 American Hill,PO Box 86997,Lutun,,CN,,171-640-3605,Ileane Barmby
4611796744,96 Homewood Center,PO Box 99772,Rozkishne,,UA,,664-266-0953,Kassia Thornewell
2021494934,93992 Pleasure Lane,15th Floor,Prínos,,GR,,778-843-8264,Biron Burnall
1490819320,8948 Dennis Avenue,Room 134,Lau,,NG,,568-783-5734,Maureen Asprey
5724951541,2617 Buhler Pass,15th Floor,Noveleta,,PH,4105,679-527-1305,Dix Broomfield
3154109935,678 Mitchell Road,Apt 1385,Lebu,,CL,,568-871-7460,Richardo Nevin
1561233943,8509 Bellgrove Park,Room 1620,Kedawung,,ID,,228-200-1478,Melvin Mordey
9979285001,350 Bonner Hill,Suite 60,Shuangzhong,,CN,,504-551-1766,Dukey Fidal
1929065035,7 Acker Center,10th Floor,Ishioka,,JP,999-2171,598-858-9130,Bobbie Vedyasov
1682886956,3179 Lunder Point,Apt 716,Kubanskiy,,RU,102085,999-172-5014,Caz Hawken
9847688028,666 Meadow Valley Court,Apt 622,Paris 17,Île-de-France,FR,75853 CEDEX 17,962-873-5121,Ora Boyes
7365940883,0763 Logan Park,Suite 52,Ganhe,,CN,,439-363-9797,Thaddus Sannes
4916970144,39720 Pawling Circle,Room 404,Cruces,,CU,,176-475-0933,Frederico Chansonnau
3905090589,933 Bellgrove Hill,Room 573,Kakaek,,ID,,969-696-6020,Sissie Slyde
8904590833,912 Reinke Hill,9th Floor,Nioro,,ML,,429-852-5395,Kristal Manger
6121218657,43 Dapin Terrace,14th Floor,Neuss,Nordrhein-Westfalen,DE,41468,585-356-9979,Brendin Pryde
7280333745,34 Bultman Trail,14th Floor,Ростуша,,MK,1257,409-292-3445,Colas Gritton
1872761623,8 Loftsgordon Place,Apt 163,At Tibnī,,SY,,659-206-9581,Stormy Erswell
8950772345,6506 Hanover Street,18th Floor,Shishi,,CN,,832-959-9299,Giustina Ruxton
7377578203,62 Packers Hill,Suite 48,Yangon,,MM,,538-673-8790,Marney Rochell
7645349867,0541 Cherokee Point,Suite 91,Municipio de Copacabana,,CO,051048,259-450-9392,Vassili Thyng
1194400299,6963 Towne Trail,7th Floor,Anchang,,CN,,813-820-8910,Land Prudence
5576788281,5590 Meadow Vale Junction,Room 204,Bitung,,ID,,928-616-2653,Niccolo Faro
8204053746,9 Caliangt Terrace,Apt 382,Nerópolis,,BR,75460-000,891-115-7998,Xenos Crudginton
0660157470,81 Texas Lane,PO Box 79903,La Seyne-sur-Mer,Provence-Alpes-Côte d'Azur,FR,83514 CEDEX,747-456-1913,Hendrick Jamison
0319762777,25904 Novick Crossing,Suite 20,Tignoan,,PH,8305,434-105-8038,Benoite Pullar
0421121637,04 Mockingbird Junction,PO Box 82736,Paine,,CL,,594-116-0035,Corry Medforth
8420080853,1270 Jackson Court,18th Floor,Cherëmukhovo,,RU,624475,590-137-3319,Waiter Bosley
9345212337,59442 Southridge Pass,PO Box 50835,Lyuban’,,BY,,968-370-7655,Prent Hathwood
0842575855,1 Arrowood Park,Suite 60,Kudang,,ID,,558-708-6801,Harley Durkin
3298215457,8 Bunting Plaza,Apt 103,Al Hoceïma,,MA,,337-332-2535,Suzann Colquitt
0248949241,6 Talmadge Court,PO Box 67394,Galutu,,CN,,179-268-7922,Loreen McIlwraith
2611028311,2945 Truax Plaza,Apt 33,Sokolovo,,RU,412478,120-592-6905,Sergio Shakeshaft
4930297710,8 Utah Junction,9th Floor,Naji,,CN,,168-136-6076,Daryle Coutthart
8693503626,30022 Nancy Hill,Room 1120,Xinminxiang,,CN,,718-554-1368,Monte Alban
0073769916,8 Garrison Place,Room 229,Pamotan,,ID,,368-863-8289,Thomasine Seymour
0838445152,2284 Menomonie Point,Room 755,Vanino,,RU,682860,651-428-9657,Dmitri Aynold
8424052277,868 Lakeland Hill,Room 82,Ugljevik,,BA,,106-381-1333,Muffin Hinsch
3771363802,7 Roth Place,4th Floor,Yongfeng,,CN,,504-747-5310,Dorree Marrill
5715211247,73 Vera Park,10th Floor,Shijak,,AL,,580-422-5076,Ryley Moylane
1798171996,38 Saint Paul Place,13th Floor,Kista,Stockholm,SE,164 40,714-731-4429,Bernita Longcake
7554159941,096 Roxbury Pass,Apt 693,Kaduseeng,,ID,,268-288-0987,Tawnya Galbreath
4769170505,5569 Jenna Court,Suite 12,Igoumenítsa,,GR,,469-118-2348,Orsola Janny
0470305029,086 Sullivan Alley,Suite 26,Lille,Nord-Pas-de-Calais,FR,59044 CEDEX,374-131-2317,Violet Duck
5758442496,1 7th Parkway,PO Box 53852,Gaula,Ilha da Madeira,PT,9100-035,979-136-7728,Brianna Whitbread
8495465639,69 Holy Cross Crossing,PO Box 41213,Letlhakeng,,BW,,753-670-4973,Zollie Hobson
4511873933,77421 Fulton Trail,PO Box 4497,Juancheng,,CN,,126-913-4494,Freedman Tunsley
9267702173,624 Luster Center,PO Box 18458,Bhāndāria,,BD,8550,798-724-9572,Ewell Andreassen
3326087810,75 Kedzie Center,Room 128,Nijmegen,Provincie Gelderland,NL,6539,551-353-3820,Jenilee Borsay
8224241262,9388 Main Place,10th Floor,Umm as Summāq,,JO,,634-876-1556,Hubie Valentinetti
8433275674,2 Sunfield Pass,5th Floor,Bang Len,,TH,73130,652-201-3924,Meg Stoddart
4492045449,7 Kings Court,PO Box 80618,Figueiras,Leiria,PT,2430-186,667-413-5457,Saul Roncelli
2144748039,2537 Cambridge Pass,Room 1745,Annau,,TM,,961-688-2418,Betti Hostan
7969814204,9 Northland Trail,Suite 84,Reshetylivka,,UA,,592-820-0140,Katusha Ramalhete
0970524803,76200 American Ash Park,2nd Floor,Chedao,,CN,,107-752-4420,Correy Bartolomeo
2744652237,01337 Derek Alley,Suite 51,Kunyang,,CN,,903-173-1860,Sandra Peggram
5902546214,677 Moland Hill,10th Floor,Shanghuang,,CN,,823-172-3954,Claudette Featonby
5698097798,78 3rd Circle,PO Box 29268,Cungking,,ID,,445-977-0835,Dolli Gatteridge
7305136131,1 Leroy Drive,PO Box 88655,Magay,,PH,6344,678-392-7798,Giustina McSkeagan
0691781699,75042 Warbler Junction,PO Box 78196,Albion,,MU,,180-367-8417,Cybil Hannibal
2133210164,64 Dixon Street,Room 112,Taclobo,,PH,2810,471-161-6795,Isa Buddell
6536626370,349 Becker Drive,PO Box 2516,Simpanganduwet,,ID,,205-617-5154,Randee Pedder
2353308791,72 Melvin Court,12th Floor,Zapatero,,PE,,420-904-7614,Pavla Whyborn
6967839322,46989 Montana Center,Apt 979,Brooklyn,New York,US,11254,212-302-7814,Waiter Gover
6131219370,0634 Arapahoe Drive,Room 844,Trelleborg,Skåne,SE,231 91,153-812-6494,Whittaker Skala
6930237124,2 Harper Lane,PO Box 62641,Meadow Lake,Saskatchewan,CA,S9X,652-838-2416,Tarra Pitrelli
3054111288,83226 Red Cloud Court,PO Box 60584,Araxá,,BR,38180-000,927-282-1625,Jinny Luton
6297434271,4 Mifflin Crossing,Suite 73,Klenčí pod Čerchovem,,CZ,345 34,919-427-9427,Rhona Darridon
0506113663,141 Crowley Hill,PO Box 49735,Téra,,NE,,261-416-2284,Karlen Bridgeman
2857689292,9177 Steensland Crossing,Apt 643,Bekondo,,CM,,244-367-6277,Washington Bartosik
0352823704,44 Springs Circle,2nd Floor,Sanxing,,CN,,479-884-5728,Isa Sunock
6594027107,050 Golden Leaf Place,Room 720,Jindu,,CN,,534-713-5508,Jedediah Vezey
1946430994,7 Del Sol Parkway,Suite 14,Matanzas,,DO,11904,710-307-9998,Carina De Moreno
2373958597,31392 Melrose Junction,Room 1607,Moses,Porto,PT,4415-719,639-330-8094,Bartolomeo Mattingley
5257335972,5 Dovetail Lane,Apt 1473,Tupã,,BR,17600-000,819-478-4178,Geoffrey Baszkiewicz
9664608408,93220 Dryden Street,Suite 98,El Triunfo,,HN,,483-569-0983,Kellina O'Lagen
6901553293,4 5th Point,PO Box 93169,Huskvarna,Jönköping,SE,561 85,126-969-0746,Mollee Lindley
2510351966,6 Maple Crossing,Apt 1317,Distracción,,CO,444008,490-215-7857,Aloysius Bessom
8580990319,2 School Court,19th Floor,Kulunda,,RU,249070,165-470-6881,Dana Rice
1709322691,11 Chive Street,PO Box 2515,Libenge,,CD,,760-207-9894,Saxe Orrocks
8061494728,44638 Oxford Trail,Room 1701,Otjiwarongo,,NA,,476-768-3957,Jenilee Issacson
8931946554,61698 Chinook Center,18th Floor,Bireun,,ID,,922-686-7296,Garwood Toft
7973839518,0 Old Gate Crossing,Suite 93,Bayanbaraat,,MN,,651-313-6833,Waly Fonso
8721779864,8141 Merrick Alley,Room 773,Shani,,NG,,610-293-6072,Glen Belfrage
5170404433,1 Eastlawn Pass,PO Box 79109,Kaberamaido,,UG,,736-639-1961,Dee dee Revill
3808970464,99926 Fairview Center,PO Box 57601,Afareaitu,,PF,,325-272-0679,Rod Frame
3794352270,38537 Chive Road,PO Box 82133,Hoàn Kiếm,,VN,,411-226-2527,Danny Wales
5916517831,3652 Veith Circle,PO Box 50676,Santa Bárbara,,VE,,876-410-8593,Kayle Issacson
5019925500,3 Michigan Parkway,Room 1747,Choca do Mar,Aveiro,PT,3840-032,279-262-2791,Cathryn Gorman
5972867540,62 Arapahoe Way,Apt 1720,Kaiyun,,CN,,833-895-1412,Scotti Wildor
5482206114,97895 Riverside Trail,Room 340,Wurigelebur,,ID,,332-461-9477,Chantalle Ellingsworth
0336372612,52763 Fulton Place,16th Floor,Saint-Nazaire,Pays de la Loire,FR,44604 CEDEX,501-747-3276,Dana De Roeck
6595164469,426 Hintze Court,Apt 634,Kramarzówka,,PL,37-560,692-138-6487,Seth Disman
5526186504,13 Oneill Center,10th Floor,Tojal,Porto,PT,4620-931,240-270-8684,Quint Craigmile
6617605918,94524 Crest Line Court,Apt 1931,Bekasi,,ID,,815-307-0943,Merv Signoret
7988127403,87 Holmberg Court,Suite 70,Głogówek,,PL,48-250,130-136-5120,Vernor Slides
1463807279,9 Cordelia Court,Apt 370,Shebekino,,RU,309296,513-130-2436,Trenna Longford
4317910810,5993 Duke Hill,PO Box 47403,Pavlohrad,,UA,,777-688-0218,Bryn Ranstead
0267437331,75512 Mcbride Parkway,Room 958,Aracati,,BR,62800-000,786-642-7852,Jefferson Brafferton
7431721528,17 Bunting Crossing,Suite 33,Ulaan-Ereg,,MN,,886-861-8638,Valdemar Tuddall
6128142052,35913 Jackson Point,Apt 547,Villanueva,,PH,9002,902-550-4066,Ingram Hundal
1035307871,064 West Parkway,Room 1902,Goussainville,Île-de-France,FR,95194 CEDEX,489-775-3114,Cristina Aylward
8472653625,1 Logan Parkway,Suite 99,Si Narong,,TH,34000,208-727-7745,Felicdad Hartmann
9781557230,5729 Westend Place,Room 457,Lianzhou,,CN,,922-726-4003,Julissa Aylmore
7199510454,83 Carioca Court,13th Floor,Sihanoukville,,KH,,678-635-6166,Rem Tommaseo
2745458531,8 Ruskin Avenue,PO Box 85948,Calape,,PH,6328,837-629-0655,Lorna Woolens
0058384936,92 Roxbury Pass,Apt 457,Vilar do Pinheiro,Porto,PT,4485-824,683-790-6791,Jessamine Velez
1192572157,513 Goodland Alley,PO Box 26527,Mataraben,,ID,,631-776-9881,Barbara-anne Rowsel
1124799370,7 Continental Crossing,PO Box 53787,Milaor,,PH,4413,871-525-5766,Parry Arnefield
4833477386,9 Sommers Circle,PO Box 54623,Daming,,CN,,320-621-0732,Abie Woffinden
2770450921,86576 Union Drive,Apt 90,Abelheira,Porto,PT,4785-103,429-879-1127,Hetty Harrema
0071405631,9 Kennedy Way,PO Box 24303,Gucheng,,CN,,401-934-3326,Larissa Romaint
6935407885,145 North Hill,20th Floor,Thatèng,,LA,,211-294-9242,Alexandro Ferguson
9346978473,83 Mesta Terrace,Suite 92,Ehen Hudag,,CN,,950-268-7998,Humberto Collick
5097985249,925 Harbort Drive,PO Box 66979,Lauro de Freitas,,BR,42700-000,324-914-8815,Chad Di Biagi
5791309120,1569 Harbort Lane,Apt 1096,Uzgen,,KG,,708-181-5424,Nichole Wichard
1537052586,81517 Messerschmidt Point,Suite 70,Tegalbuleud,,ID,,565-419-1599,Redford Tebbet
5570221956,55 Surrey Avenue,Room 1300,Fortios,Portalegre,PT,7300-655,720-959-6496,North Pirrone
4401879643,8518 Dovetail Plaza,PO Box 60079,Shuyuan Zhen,,CN,,690-490-5742,Julia Babar
9159026057,19478 New Castle Park,Suite 30,Gandekan,,ID,,901-217-7500,Selig Stemp
7164429472,895 Cody Drive,Suite 7,Kawaliwu,,ID,,700-483-7069,Emmy Lasslett
4985115428,86173 Fieldstone Drive,Apt 1119,Wailiang,,ID,,395-836-9560,Sophey Bassingden
9841079372,88 Oak Valley Way,Apt 436,Shazi,,CN,,574-272-1052,Krysta Le Pruvost
8203088392,3755 Bluejay Alley,Room 388,Mrganush,,AM,,849-123-5924,Raine Oaten
4923494751,7154 Valley Edge Lane,Apt 1949,Pasadena,Newfoundland and Labrador,CA,B2J,210-360-0161,Sashenka Joubert
1415844488,732 Old Shore Alley,Apt 1944,Tolotangga,,ID,,640-122-3294,Zerk Kordes
1656263688,1 West Park,12th Floor,Ketitang Wetan,,ID,,676-375-8123,Ruddie Espie
9134821759,53 Scofield Plaza,18th Floor,Qinhe,,CN,,360-664-4403,Honor Napoleone
6466073319,8773 Kenwood Court,Room 1778,Dār Kulayb,,BH,,917-968-9738,Kris Heakey
5196830707,31 Elmside Alley,PO Box 57531,Yogyakarta,,ID,,385-577-8156,Justinn Yesinin
0466853823,83287 Del Sol Park,PO Box 5975,Mzuzu,,MW,,171-993-2948,Trudi Capelen
6129259107,323 Hayes Alley,Suite 100,Calceta,,EC,,245-566-1900,Lyndy Pantling
7591575341,84753 Cascade Parkway,PO Box 36404,Bela Vista do Paraíso,,BR,86130-000,438-251-4266,Ewell Burles
9781016647,16 Waxwing Way,6th Floor,Arrah,,CI,,621-209-2638,Malvin Leijs
3569101770,25651 Manufacturers Avenue,Apt 1897,Allen,,AR,8328,760-188-8194,Megen Morrice
8090668984,3 Forster Way,14th Floor,Rosario,,PH,8504,165-420-9895,Tanner Cripin
1524681601,389 Hudson Parkway,15th Floor,Monte Branco,Évora,PT,7005-838,509-283-6783,Cheryl Edwicke
8021576340,60017 Cottonwood Crossing,1st Floor,Chengdong,,CN,,231-579-1784,Domenic Ford
2568935456,76793 Fulton Trail,Room 1002,Protaras,,CY,,668-897-4073,Ferne Schoular
4890109080,6405 Fulton Hill,Apt 351,Wangzuizi,,CN,,676-404-5486,Jack Dran
5231454486,7364 Saint Paul Trail,Room 1766,Zhongxiang,,CN,,846-642-5441,Abelard Chicotti
8744991215,81 Rockefeller Pass,Room 1703,Apoya,,PH,2304,931-699-6373,Friederike Tewnion
3039003313,89 Northland Plaza,Apt 1549,Kranj,,SI,4600,608-984-2295,Denyse Eake
8172956894,76320 Merrick Avenue,Apt 1507,Hufang,,CN,,232-245-3218,Terra Simonich
3184461904,52 Mitchell Avenue,PO Box 31786,Dzhalilabad,,AZ,,492-297-6599,Humberto Endrighi
4769172184,80 Graceland Road,Room 1869,Loei,,TH,42000,610-243-7775,Elisabeth Edison
7543142368,7980 Eagle Crest Junction,Room 527,Týrnavos,,GR,,804-643-1120,Geno Themann
8106933865,132 Quincy Center,PO Box 35927,Dubno,,UA,,564-676-9417,Mannie Crouse
6848895377,82702 Dovetail Circle,PO Box 19528,Medicine Hat,Alberta,CA,T1C,540-152-9783,Mirella McCurt
2796116689,4713 Vera Trail,Room 1551,San Pedro de Atacama,,CL,,572-482-6542,Lira Drees
6309189034,84640 Elmside Lane,Apt 294,Mariental,,NA,,474-878-9038,Paolina Keys
1584596104,9 Bluestem Court,Apt 1706,Duqu,,CN,,755-743-0274,Bebe Lagden
9959974693,37670 Old Gate Road,Apt 225,Kájov,,CZ,382 21,895-698-5719,Tannie Messom
7020090311,32029 Michigan Road,Suite 7,Masalovka,,RU,347837,611-742-4842,Vladamir Jiracek
1263033482,5 Transport Court,Room 1595,Pombal,,BR,58840-000,490-166-0973,Jefferson Swapp
9416310905,070 Buell Road,6th Floor,Murganhal,Lisboa,PT,2760-040,195-571-4077,Genni Preist
7923614962,58 Larry Hill,Apt 363,Zhangdian,,CN,,476-801-8966,Gardiner Capron
5080417250,9200 Southridge Pass,Room 25,Xiaohekou,,CN,,608-829-4542,Hartley Portsmouth
2194890599,714 Hanover Crossing,Apt 894,Krajan Tegalombo,,ID,,332-854-6521,Shalom Kerfod
2386286959,50 Spohn Lane,Apt 968,Zoumaping,,CN,,919-917-9458,Ralina Meadway
3952230456,11 Independence Pass,Room 1092,Tseel,,MN,,267-464-4802,Raimundo Thynne
9628644203,8442 Lukken Park,PO Box 14448,Khanino,,RU,301420,747-721-2392,Nickolai Strathe
5539913728,01 Rockefeller Place,Apt 1272,Zuya,,UA,,794-390-0816,Doralynn Denisot
8852811389,011 Lotheville Hill,PO Box 52289,Iqaluit,Nunavut,CA,K6K,858-299-7119,Netty Fowlie
5781629610,599 Roxbury Trail,1st Floor,Mascouche,Québec,CA,J6W,447-779-3207,Teressa Sinson
4727643162,71540 Glendale Point,Suite 60,Tremembé,,BR,12120-000,497-763-1263,Mina Besantie
0393920895,74 Bowman Point,Apt 581,Pantaibesar,,ID,,995-154-2522,Jeniffer Gillingwater
0686245768,6762 Lunder Circle,PO Box 37819,Huangzhuang,,CN,,605-717-3056,Mallorie Ivankov
1686678401,29 Tennyson Road,Suite 76,Goris,,AM,,637-988-3929,Cyndy Fearenside
7553951714,6 6th Place,PO Box 49740,Veiga,Porto,PT,4650-226,930-292-4098,Garv Houltham
5156046630,20161 Forest Dale Center,18th Floor,Tandaltī,,SD,,922-153-0226,Corinne Cranson
7462589214,8 Burning Wood Crossing,Room 1223,Täby,Stockholm,SE,187 14,972-468-7996,Alys Scamwell
6114182545,9207 Alpine Road,PO Box 85647,Dolores,,NI,,198-178-9967,Ogdon Daniel
9888340158,92171 Schiller Pass,Apt 1715,Lyon,Rhône-Alpes,FR,69424 CEDEX 03,235-366-2152,Colan St. Pierre
5878625342,90 Oxford Way,PO Box 91445,Illela,,NG,,145-762-3644,Buddie Meineken
4142683608,106 Continental Circle,Apt 1894,Bzenec,,CZ,696 81,282-802-3532,De Babington
5910267442,7 Pennsylvania Court,19th Floor,Pangkalanbunut,,ID,,796-329-8233,Windham Scotland
5360165243,55 Brown Trail,2nd Floor,Reutlingen,Baden-Württemberg,DE,72768,990-551-9616,Blythe Cayford
2750339073,891 Goodland Park,Room 1262,Sv. Trojica v Slov. Goricah,,SI,2236,109-754-3341,Rudiger Settle
5396159731,57419 American Plaza,1st Floor,Karanlukh,,AM,,565-574-9333,Corbie Gerkens
5421312135,40926 Logan Road,Room 1697,Umi,,JP,811-2101,721-375-4861,Ynez Lune
1124776486,3 Mockingbird Way,8th Floor,Huangshagang,,CN,,215-876-5096,Brady Nelhams
0765888270,876 Rockefeller Crossing,19th Floor,Funaishikawa,,JP,319-1111,414-665-6354,Cheryl Farryn
3813996875,8687 Jay Place,Apt 334,Annaka,,JP,379-0116,814-161-9877,Walther Western
9972365743,404 Luster Crossing,Room 1582,Besançon,Franche-Comté,FR,25004 CEDEX,352-691-4459,Augie McCrudden
4904399943,6 Bay Way,9th Floor,Filiatrá,,GR,,451-770-0863,Francoise Ehlerding
6440521098,52011 Mcbride Avenue,Apt 1646,Xijiao,,CN,,633-229-7222,Bondie Gronauer
4371577385,321 Cascade Road,Room 1031,Sevilla,Andalucia,ES,41015,999-124-5011,Obediah Duffield
8725876058,58 5th Center,19th Floor,Christiana,,ZA,2680,444-517-5214,Mallory Jugging
4687085423,06946 Little Fleur Parkway,PO Box 75697,Ait Ali,Tizi-Ouzou,DZ,15103,183-307-3432,Jonis Diament
6758188914,7130 Kropf Drive,Apt 1758,Nakhchivan,,AZ,,226-599-3367,Rozanne Kacheller
7406118473,3 Gulseth Drive,Room 320,Lungmar,,CN,,304-290-5939,Gerianna Dockerty
4646627035,49 Northland Parkway,Suite 13,Plužine,,ME,,954-242-9205,Sherline Matveyev
5361665223,0772 Holy Cross Crossing,Suite 38,Katsuyama,,JP,905-0002,501-324-0489,Jodie Gallemore
8490222436,58843 Carpenter Hill,Room 475,Timaru,,NZ,7940,502-599-0593,Hillary Lembrick
9904778639,507 Merchant Trail,18th Floor,Saint Louis,Missouri,US,63121,314-218-9173,Merrill Boodell
4197718683,650 Fremont Lane,Apt 1341,Shuishi,,CN,,147-669-4880,Kaycee Candelin
1248740807,07 Grasskamp Road,Room 169,Det Udom,,TH,34160,252-546-0719,Codie Swindley
1829133977,290 Shopko Crossing,Apt 927,San Marcos,,HN,,190-386-4995,Adey Berr
0973953306,4 Talmadge Hill,Room 1463,Alfena,Porto,PT,4445-005,330-412-0957,Juana Kingstne
8596880399,55 Mcbride Pass,Room 1408,Kohila,,EE,,302-253-2375,Brenden Halpin
8760826436,0731 Kensington Court,Apt 1312,Gaurnadi,,BD,8242,901-569-0099,Judi Awmack
0264229088,713 American Ash Junction,PO Box 94901,Karanyowka,,BY,,520-304-1565,Quinlan Gove
0636332187,26778 Di Loreto Terrace,PO Box 14250,Kil’mez’,,RU,613570,180-373-2582,Mariellen Grimmett
3332334670,47770 Monument Parkway,Suite 1,Usab,,PH,6127,189-214-9799,Nikolaos Labern
6047977820,229 Hintze Terrace,Apt 440,Shuangnian,,CN,,949-241-5075,Cathyleen Kmicicki
9206374249,2 Stoughton Plaza,PO Box 91450,Jiaotang,,CN,,556-428-1931,Brunhilde Snalom
0688505198,5 Stephen Lane,14th Floor,Tash-Kumyr,,KG,,911-662-8887,Torie Gypson
8549312819,21235 Blackbird Junction,Apt 1392,Lorut,,AM,,382-491-8867,Thaddus Coneley
2300182750,9931 Kennedy Terrace,Room 697,Białaczów,,PL,26-307,922-622-8668,Clifford Gosland
5875566299,7 Commercial Street,Suite 48,Sukumo,,JP,788-0363,956-439-0711,Yvon Rangall
0465401317,6906 Norway Maple Park,PO Box 7988,Ol Kalou,,KE,,820-650-4075,Hill O'Crevan
7400013807,6 Mariners Cove Junction,Suite 94,Singapore,,SG,,824-358-7382,Arline McKune
6779954233,5461 Anderson Way,Suite 58,Lapid,,IL,,386-297-1297,Judie Shanklin
6251632216,8 Hazelcrest Alley,Apt 1274,Yuecheng,,CN,,360-496-3797,Salem Tatters
2399621077,78 Mitchell Road,Apt 425,Catujal Velho,Lisboa,PT,2680-423,454-835-5507,Cristobal Vondrak
0141851481,18 Hooker Court,Room 1129,Kapyl’,,BY,,529-968-2096,Morly Bartaletti
1438953070,54573 Utah Hill,14th Floor,Cartagena,,CL,,712-245-7387,Keen McNeachtain
5026701795,39 Gateway Pass,Room 1164,Bộc Bố,,VN,,914-259-7700,Georgine Corbridge
9004398074,5 Cordelia Pass,Room 1077,Casimiro de Abreu,,BR,28860-000,855-219-7872,Rutledge Gravells
3167114908,47 Westend Center,9th Floor,Kamenický Šenov,,CZ,471 14,148-319-8780,Johnath Mackiewicz
0948517492,388 Nelson Court,PO Box 31989,Orléans,Centre,FR,45947 CEDEX 9,358-192-4737,Steve Whitely
5402829802,94 Service Drive,Apt 689,Hrvace,,HR,21233,845-847-5161,Mort Blackah
1305653440,2489 Kensington Court,Room 454,Kropachëvo,,RU,456030,877-721-9611,David Champneys
7956590221,858 Schurz Terrace,PO Box 80153,Nürnberg,Bayern,DE,90451,591-850-1832,Dasya Coulthurst
6657757727,4 Almo Terrace,2nd Floor,Xiping,,CN,,136-936-1958,Helenelizabeth McKeown
9615223573,0 North Court,Room 1720,Lucija,,SI,6333,563-148-4469,Antoine Weippert
1000825345,6 Doe Crossing Center,Apt 973,Río Ceballos,,AR,5113,771-679-3619,Benn Schiementz
4816357637,3929 Fuller Junction,Suite 37,Mtinko,,TZ,,137-178-1485,Scot Bramo
3541077417,77267 Mcguire Street,Apt 314,Judaydah,,YE,,959-371-7138,Frazier Gosnell
0169837432,20 Kim Hill,PO Box 44944,Long Loreh,,ID,,139-818-7907,Orion Legrand
5093988200,40345 Pepper Wood Center,Suite 88,Leyuan,,CN,,845-688-3365,Gram Marcq
0784058709,77 Prairieview Parkway,4th Floor,Criciúma,,BR,88800-000,801-697-0228,Frieda Valadez
7645427345,4 Bonner Road,16th Floor,Jiazi,,CN,,563-342-3556,Delcine Windless
4284064223,32 Pond Park,Suite 9,Jiangwan,,CN,,492-569-3086,Haroun Spitell
8987476022,73290 Dahle Way,Suite 21,Baligród,,PL,38-606,451-240-4915,Sybila Lambswood
9077351523,0 Farwell Junction,2nd Floor,Karvia,,FI,39930,281-529-5556,Idell Risom
5588953355,5116 Rockefeller Way,Suite 55,Banisilan,,PH,9416,642-838-7015,Cassius Rhead
9151937751,133 Russell Way,Suite 41,Đoan Hùng,,VN,,179-471-5908,Nikolai Treby
8045363401,75525 Moulton Point,Suite 73,Jīwani,,PK,28360,689-730-3185,Georgiana Mantle
5618099861,18068 Mandrake Avenue,PO Box 51639,Horní Bříza,,CZ,330 12,238-993-6029,Jehanna Lieb
2713189098,866 Vidon Pass,Room 742,Vyškov,,CZ,683 21,181-574-5088,Mirabelle Letts
9736936422,28 Claremont Court,PO Box 28383,Katrineholm,Södermanland,SE,641 22,844-564-0235,Mufi Pinnocke
1850437416,3 Glacier Hill Place,Room 1004,Lyubinskiy,,RU,646160,708-631-6687,Alfred Loreit
8268061928,23763 Dryden Hill,PO Box 82114,Taytayan,,PH,6204,373-217-7470,Fabio Nerger
6301030486,9216 Steensland Crossing,Room 233,Boca Chica,,DO,11102,707-815-2810,Ezri Fitzsimon
7338794022,589 Reindahl Alley,Suite 44,Xinzhaiping,,CN,,373-879-8180,Yulma Zeal
2058122224,9 Sunnyside Parkway,Suite 25,Dongshandi,,CN,,598-946-0955,Abbye Shales
4772884602,91 Hollow Ridge Drive,13th Floor,Caohezhang,,CN,,554-922-4624,Dorita Tuhy
7450660113,82009 Mcbride Parkway,Suite 64,Rambatan,,ID,,743-956-0851,Obie MacKilroe
0612475034,9026 Dennis Avenue,9th Floor,Risālpur,,PK,24081,381-533-1688,Tadio Moy
3865098991,55455 Corry Crossing,Suite 25,Montego Bay,,JM,,357-741-8671,Orelie Van De Cappelle
6350057236,9657 Grim Drive,Apt 142,Mazongshan,,CN,,988-472-6041,Valina Cheale
2155225806,190 Badeau Alley,Room 58,Xinxing,,CN,,303-139-1088,Beatrix Heritege
9203800840,89 Starling Crossing,Room 1371,Chlumec nad Cidlinou,,CZ,503 51,462-245-4716,Meggy Lamble
2898170380,1822 Waywood Road,10th Floor,Dongyuan,,CN,,915-371-9806,Philippe Martinyuk
9801006773,80161 High Crossing Parkway,Suite 66,Banjar Jambe Baleran,,ID,,918-885-0907,Rowney Cominotti
3532641526,2 Dexter Road,5th Floor,Arroyo Seco,,AR,5196,406-798-4777,Clemens Dowman
2779577959,8131 Boyd Hill,Suite 67,Wa’erma,,CN,,341-750-7226,Cirillo Balfour
7349284403,6 Lotheville Avenue,Suite 35,Lefkímmi,,GR,,822-275-2431,Anissa Keford
9289742496,47007 Harbort Avenue,PO Box 15630,Mendenrejo,,ID,,789-927-1918,Lian Just
1766636837,91 Service Road,3rd Floor,Rodolívos,,GR,,681-554-5662,Jacquetta Traite
2216060003,8 Morrow Pass,Apt 536,Imbang,,PH,6116,834-627-7861,Noni Coxhead
6852239802,83424 Towne Street,Suite 98,Longjiang,,CN,,366-120-5477,Jeanine Lowdeane
6254634317,06741 Weeping Birch Hill,3rd Floor,Goroka,,PG,,298-708-4458,Siusan Stait
6966528811,20597 Clove Court,11th Floor,Bayanbaogede,,CN,,649-516-5835,Eugene Northall
6057240642,4986 Nova Place,Room 1349,Maswarah,,YE,,682-200-7354,Albert Turbayne
0617320373,5016 Delaware Trail,Apt 497,Lisiy Nos,,RU,197755,940-363-3420,Bennett Bastistini
8356870151,8 Sunbrook Place,10th Floor,Bigoudine,,MA,,410-484-0867,Renata Flory
4540640062,00 Talmadge Road,PO Box 14701,Zaoshi,,CN,,783-309-4990,Emily Trett
7224407747,8588 Ridge Oak Hill,PO Box 34802,Roanne,Rhône-Alpes,FR,42335 CEDEX,965-679-3285,Brittaney Fairbrass
4942401143,5 Coolidge Court,Apt 645,Pokrovskoye,,RU,368043,334-159-4693,Romain Nehl
7058807531,1 Montana Crossing,Apt 4,Dongfeng,,CN,,722-511-1377,Marsh Marryatt
0176695184,2 Judy Park,5th Floor,Coolock,,IE,D17,621-699-2853,Gran Kielty
3940423912,2691 Mockingbird Place,PO Box 57427,Vršac,,RS,,705-157-1095,Rollie McGrotty
5675000925,093 Center Hill,Suite 49,Telukpakedai,,ID,,149-575-5223,Worthy McCaw
7633401850,80003 Bowman Park,10th Floor,Potchefstroom,,ZA,2538,253-409-7284,Karoly Story
2916098607,1 Lawn Junction,Suite 71,Kitami,,JP,157-0067,729-787-1049,Innis Rowson
1753438624,7 Elka Crossing,PO Box 3287,Washington,District of Columbia,US,20508,202-562-8522,Aldin Philps
6067758954,78691 Walton Parkway,11th Floor,Petrivka,,UA,,626-983-6901,Sibylle Whatsize
8685747325,06 Bowman Street,PO Box 52442,Sobienie Jeziory,,PL,08-443,645-247-1089,Danette Pittson
7547938477,702 Iowa Avenue,Room 1414,Lanipao,,PH,9313,323-402-9759,Niki Trahmel
5326843811,270 Cordelia Way,Suite 90,Guadalupe Victoria,Chiapas,MX,30414,825-430-5039,Breanne Conklin
5112952296,13320 Oak Park,14th Floor,Roodepoort,,ZA,1794,179-398-7550,Pamelina Braybrookes
5395305300,2 Grover Pass,Apt 821,Banepa,,NP,,605-629-2968,Hakim Liddon
1676883053,08 Summit Circle,Room 1991,Volgograd,,RU,307740,283-498-8235,Dierdre O'Kerin
1664644024,76 Hermina Pass,Apt 1147,Thị Trấn Việt Lâm,,VN,,774-927-9140,Rogers Ouldcott
4464946305,8 Delladonna Place,11th Floor,Roissy Charles-de-Gaulle,Île-de-France,FR,95915 CEDEX 2,218-167-2536,Nealon Hoppner
5733238186,14 Holy Cross Park,1st Floor,Lyon,Rhône-Alpes,FR,69239 CEDEX 02,493-287-9129,Willie Witchell
9145098077,95175 Larry Hill,Suite 99,Rondonópolis,,BR,78700-000,695-508-4429,Bernardina Ricketts
0449788873,88 Dayton Drive,PO Box 96761,Manacsac,,PH,4332,519-280-6815,Malory Guihen
2112242148,2941 Oakridge Road,10th Floor,Mingelchaur,,AZ,,960-259-8887,Meaghan Edrich
1710761296,8125 Buena Vista Way,Suite 16,Nisporeni,,MD,MD-6401,927-344-4956,Libby Townby
1444490648,2735 Kennedy Center,Apt 1814,Abbeville,Picardie,FR,80146 CEDEX,481-774-7399,Ermentrude Genese
1490212671,95 Nelson Hill,Apt 1453,Luanshya,,ZM,,555-325-0018,Auberon Tyrone
0499934075,390 Mockingbird Point,Suite 73,Ras al-Khaimah,,AE,,229-504-3816,Gaven Gianullo
6512936175,5 Corben Plaza,PO Box 6530,Mengdadazhuang,,CN,,142-127-8370,Evaleen Loftin
1833475550,5292 Stuart Plaza,Room 1372,Changsha,,CN,,106-655-5974,Blaire Bouette
9944103446,1801 Logan Terrace,Suite 75,Palmas,,BR,77000-000,609-524-3199,Tymon Gianilli
8661020352,5733 Claremont Drive,Room 1411,Pang,,PH,4103,567-318-0592,Nola Stanway
1593074263,52856 Holmberg Place,15th Floor,Urkarakh,,RU,368580,476-915-3371,Vere Townsley
8511698086,6 Spenser Trail,PO Box 83470,Las Palmas,Oaxaca,MX,71984,134-339-0051,Elwood Koppen
5869100879,05151 Eagle Crest Parkway,Apt 934,Garahan,,ID,,218-742-8509,Steffie Clement
1399688731,4412 High Crossing Lane,Apt 1316,Ozerki,,RU,309092,621-962-7074,Merv Maytom
6876868893,086 Artisan Avenue,Suite 31,Kamen,,HR,21000,186-804-8798,Hildy Harrington
7246026150,3416 Nelson Alley,Suite 9,Sanhe,,CN,,752-588-7937,Jarrett Kibblewhite
8664035067,847 Hoffman Hill,Apt 642,Ocho Rios,,JM,,140-845-4866,Clemmie Kernan
1609323033,1638 Center Crossing,Suite 89,Krajan Craken,,ID,,443-688-9549,Vlad Scimoni
0961164875,84305 Forest Dale Way,PO Box 88881,Wińsko,,PL,56-160,372-256-6742,Gordy Celle
8677302964,617 Fulton Hill,18th Floor,Useldange,,LU,L-8708,852-462-2787,Rica Mitro
4795774803,709 Lillian Alley,Suite 23,Thompson,Manitoba,CA,R8N,484-516-8390,Johnathan Muttitt
3500120504,925 Roxbury Park,16th Floor,Gachalá,,CO,251257,256-880-1378,Fionna Dorking
1401953735,43 Sycamore Circle,Suite 34,Ngembul,,ID,,670-231-9590,Nanette Simon
0825101565,4 Lawn Center,Suite 93,Nogent-le-Rotrou,Centre,FR,28404 CEDEX,224-508-0379,Lucille Caswill
7526916091,04457 Birchwood Way,Apt 505,Patrída,,GR,,502-456-5923,Willabella Atto
9736585050,8183 Erie Alley,Apt 913,Blerim,,AL,,731-920-2948,Emilia Hatherleigh
6623387536,98965 Katie Point,Room 611,Vostochnoe Degunino,,RU,412184,143-523-9741,Kendre Philliskirk
3317746947,3 Basil Crossing,PO Box 83218,Valašská Bystřice,,CZ,756 27,865-893-6130,Zenia Scholz
5058658399,77274 Fairfield Plaza,18th Floor,Numata,,JP,996-0087,899-787-9181,Penny Streader
5090843848,0367 Clemons Crossing,Room 1580,Henghe,,CN,,293-333-1414,Hendrika Talbot
1640306382,311 Straubel Junction,7th Floor,Guaraciaba do Norte,,BR,62380-000,759-566-6264,Craig Piaggia
2514290619,4 Banding Alley,PO Box 35617,Oesao,,ID,,488-237-6484,Locke Varcoe
4224741881,1280 Maywood Trail,Suite 33,Angono,,PH,1930,364-649-9035,Gabriella Crinidge
5072885879,19 Birchwood Place,11th Floor,Qandala,,SO,,108-977-3837,Cora Santry
3462277499,2 American Ash Junction,PO Box 86705,Minggang,,CN,,914-380-6553,Gardie Matokhnin
2308518154,8568 Declaration Hill,PO Box 57608,Spokoynaya,,RU,352265,665-539-5002,Clint Camerello
5420619083,92 Comanche Alley,Room 1880,Langqi,,CN,,134-839-4822,Inez MacCall
2113821400,43 Bonner Court,Apt 112,Potiskum,,NG,,597-642-8387,Maxie Kellet
8428444870,476 4th Avenue,Apt 387,Dallas,Texas,US,75260,214-389-0560,Ingar Gillyett
5059466752,700 Fisk Avenue,Apt 832,Vir,,SI,1241,597-983-4937,Avril Cavaney
8341188066,18545 Sachs Parkway,Suite 42,Áno Sýros,,GR,,919-585-9410,Ardenia Kiraly
6064578688,1153 Gina Avenue,Room 475,Balingcanaway,,PH,1211,655-316-3987,Matias Hellicar
8376084488,71931 Roth Junction,Suite 28,Větřní,,CZ,382 11,507-547-8340,Mead Colly
1120070279,15 Manufacturers Alley,Room 263,Havana,,CU,,633-610-6523,Piotr Liff
7979270681,87 Sage Avenue,Suite 59,Amherstburg,Ontario,CA,N9V,944-287-5460,Deonne Gagan
1065840462,55 Becker Alley,Apt 1514,Huanglong,,CN,,988-700-3918,Saunderson Fridaye
1178834700,739 Mallory Point,14th Floor,Katuli,,PH,4212,750-525-4548,Dougie Cozby
2014198497,2067 Roxbury Place,Apt 1445,San Andros,,BS,,352-709-2165,Ada Musto
4658934213,51 Dottie Trail,Apt 746,Hukou,,CN,,346-102-7510,Josefina Lympany
7258272844,5022 Mayer Terrace,9th Floor,Panzhou,,CN,,411-943-1586,Kipp Jerred
4704133311,6 Logan Parkway,PO Box 2925,Jingchuan,,CN,,343-772-5941,Marwin Kembrey
5187607774,8 Graceland Point,Suite 99,Centenary,,ZW,,166-180-4521,Cloris Langan
4166787578,51611 Dahle Court,Apt 1941,Zhijiang,,CN,,252-403-1256,Queenie Ranvoise
7764126462,0570 Meadow Ridge Avenue,Room 1481,San Rafael Arriba,,CR,10304,667-738-7885,Yolane Durden
0061718092,4071 Summer Ridge Terrace,Room 1837,Aoqian,,CN,,253-227-3307,Eleanore Soigoux
1994058994,94898 Stoughton Pass,Apt 1251,Baton Rouge,Louisiana,US,70820,225-981-0804,Evonne Winsborrow
1703053567,7 Bashford Junction,Room 313,Aviles,Asturias,ES,33404,528-851-8423,Ailis Alloisi
9756161957,546 Upham Junction,PO Box 2699,Solingen,Nordrhein-Westfalen,DE,42659,565-369-5877,Nigel Causley
6841113950,8558 Dottie Crossing,Apt 542,Krasnyy Klyuch,,RU,676058,114-322-0849,Crin Leahey
1934175900,8339 Park Meadow Crossing,Suite 20,Xihe,,CN,,967-892-7495,Clotilda Durham
8027436028,77 Maywood Place,Apt 536,Tlogotunggal,,ID,,654-625-7080,Lissie Disman
4388847739,559 Prentice Point,PO Box 11127,Mogocha,,RU,673732,921-224-7874,Latrina Bucktharp
8999317552,24440 Roxbury Crossing,Room 1586,Namora,,PE,,791-210-6055,Mikey McAw
9771656430,4505 Alpine Center,PO Box 3028,Sambopinggir,,ID,,306-683-8521,Bella Yakolev
3042666743,0067 Susan Way,Room 1080,Nagoya-shi,,JP,486-0969,918-934-4238,Bryn Swiffen
9617210886,6 Spaight Center,PO Box 99364,Armenia,,CO,630008,325-910-6059,Bili Stockall
0857281909,04 Melvin Court,4th Floor,Uniejów,,PL,99-210,781-208-3797,Geoffrey Woolfitt
7371884574,85509 Nobel Hill,PO Box 75353,Nangkapayung,,ID,,120-451-9564,Shawna Cregin
5873381283,8146 Moland Crossing,PO Box 78060,Ardirejo,,ID,,215-719-8909,Aggie Looks
1496331842,32259 Karstens Drive,Suite 56,Capulaan,,PH,5516,837-672-3342,Xylia Croux
6548773462,1988 Cody Park,Room 343,Rayevskaya,,RU,353983,989-841-6725,Trip Christer
0000576905,1 Fordem Lane,PO Box 76903,Istres,Provence-Alpes-Côte d'Azur,FR,13807 CEDEX,403-523-9533,Celene Boij
3234960267,85637 Dottie Street,PO Box 59772,Ciparakan,,ID,,904-420-5538,Noelle Polak
2015619763,67 Buhler Park,9th Floor,Чучер - Сандево,,MK,1011,726-797-0809,Ichabod Jacobssen
2148465767,59 Clarendon Park,Room 823,Valbonë,,AL,,422-100-1471,Hertha Crofthwaite
2491621819,16 Charing Cross Hill,Room 208,Nazarje,,SI,3331,550-670-6132,Seka Rockcliffe
1620491699,202 Pond Way,Room 1828,Bāqim as Sūq,,YE,,214-689-2536,Gaelan Brimilcome
4466190801,65120 Holy Cross Place,2nd Floor,Troitskoye,,RU,140168,632-238-2159,Hy Peltz
0200134795,460 Valley Edge Street,1st Floor,Tonga,,CM,,428-783-7095,Deanne Keymer
6287060867,59285 Carberry Drive,Apt 941,Taloqan,,AF,,291-784-3978,Hermann Kemson
8991392768,21350 Meadow Valley Road,18th Floor,Huangsha,,CN,,386-357-2210,Brooke Champkins
8678036990,9710 Butternut Circle,Suite 74,Meikeng,,CN,,244-151-1035,Abdel Crevagh
3357601575,97227 Washington Street,Room 1660,Doloplazy,,CZ,783 56,920-362-9781,Ladonna Leathart
7695999113,7535 Spohn Street,11th Floor,Carregal,Aveiro,PT,3800-854,679-604-1115,Hyacinthie Reder
6825649310,1 Heath Plaza,Apt 1706,Deep River,Ontario,CA,M4J,851-414-2924,Reggis Wasylkiewicz
9609427685,8900 Lotheville Alley,PO Box 72334,Poroshkovo,,UA,,215-352-9015,Maureene Jaquin
2894065116,53 Eliot Point,PO Box 78679,Igaraçu do Tietê,,BR,17350-000,425-865-5898,Emmit MacCurtain
5725455106,466 Sullivan Street,Room 295,Sukabumi,,ID,,819-183-1512,Karyn Yetton
2676781979,0 Blaine Park,Apt 1484,Bandar Pusat Jengka,Pahang,MY,26485,607-154-0805,Ernest Quarry
8724302597,7 Northland Road,PO Box 65085,Pontevedra,Galicia,ES,36156,922-545-5205,Lanie Goater
4032221731,908 Westend Place,Suite 36,Tsant,,MN,,680-446-8741,Veronique Garraway
2665043688,908 Prentice Circle,Suite 55,Hāla,,PK,70130,392-398-8624,Trudey Ness
0900627492,4197 Mesta Terrace,4th Floor,Dangmu,,CN,,521-826-3905,Shelby Frondt
4293832734,69 Corben Way,Apt 963,Peshtera,,BG,4550,975-607-2532,Dahlia Yekel
0954572068,7685 Linden Terrace,Apt 1154,Pinhal da Marquesa,Setúbal,PT,2950-577,892-642-0117,Alec Brodbin
2295884047,517 Thierer Center,18th Floor,Duobaoshan,,CN,,144-575-1592,Symon Mathe
5026978851,1483 Declaration Plaza,17th Floor,Jackson,Mississippi,US,39236,601-434-4814,Krissie Rabbitt
1899859381,8 Oakridge Street,Apt 659,Kurzętnik,,PL,13-306,972-591-5267,Laurie Peppard
9849597852,9 Valley Edge Alley,Apt 1694,Blois,Centre,FR,41029 CEDEX,172-610-4325,Bale Castellanos
7713247394,545 Westport Pass,Room 1524,Gandi,,NG,,995-919-5267,Christiane Tother
8653707336,4 Continental Center,PO Box 8183,Cikondang,,ID,,329-257-1962,Maribelle Hulkes
0910212694,48 5th Center,PO Box 24133,Suwon-si,,KR,,736-210-6915,Rowe Edds
8698503640,4784 Cambridge Junction,Room 68,Sīlat al Ḩārithīyah,,PS,,796-489-4932,Tate Retter
5314646854,70466 Rutledge Crossing,Room 1745,Chicago,Illinois,US,60657,773-929-3484,Cosetta Clayworth
4645961829,749 Schmedeman Avenue,PO Box 17883,Oslo,Oslo,NO,0873,684-150-7342,Ted Battaille
1693631253,6 Green Ridge Lane,9th Floor,Taibai,,CN,,267-154-1618,Buiron Ivakhnov
4722833346,0 Summer Ridge Street,Room 54,Horní Čermná,,CZ,561 56,940-924-1717,Raddie MacKowle
7812889556,560 Bashford Way,Suite 3,Néa Sánta,,GR,,704-321-1623,Joann Mulroy
2765517258,98211 Memorial Crossing,PO Box 17944,Zhendong,,CN,,517-663-2342,Rosalind Bastistini
3630193250,975 Hanson Junction,Room 1997,Westport,,NZ,7866,361-309-2914,Henryetta Trehearne
0625321693,1197 Merchant Junction,Apt 587,Cocachacra,,PE,,875-119-2850,Thaddeus Gilstin
1700335480,57041 Waxwing Place,PO Box 96178,Palotina,,BR,85950-000,573-166-8981,Leilah Bosket
0363406913,470 Hooker Place,PO Box 73208,Cidima,,ID,,953-238-6954,Wakefield Cristea
3531581597,4 Burrows Parkway,11th Floor,Silvares,Castelo Branco,PT,6230-636,937-991-8398,Adeline Loxly
9690364820,612 Graceland Circle,Apt 1316,Al Jarrāḩī,,YE,,558-331-1477,Annie Huke
8380793811,778 Moland Lane,Suite 36,Cimuncang,,ID,,158-865-9453,Glynnis Boynton
3235175733,6919 Kingsford Way,PO Box 50934,Cempaka,,ID,,148-849-7783,Alan Burrells
3652185285,77 4th Terrace,16th Floor,Ban Chang,,TH,21130,250-952-6985,Felicle Treeby
7350195729,38 Holmberg Place,Suite 19,Bajo,,ID,,194-714-0154,Nichole Watkiss
5434231546,00 Mifflin Street,Suite 37,Kokas,,ID,,225-239-5744,Ad Flye
9450498903,14987 Pond Center,12th Floor,Mizunami,,JP,957-0048,225-715-2050,Jillayne Bleddon
3643653026,31805 Texas Drive,Room 31,Pekuwon,,ID,,874-766-1209,Job Gautrey
8779529712,455 Vernon Point,PO Box 29246,Nacala,,MZ,,433-958-7357,Valida Worcester
4404176937,6 Brentwood Avenue,Apt 1156,Jämsänkoski,,FI,42301,366-396-5249,Cy Paske
2152515595,1435 Alpine Place,Suite 24,Kolno,,PL,18-500,754-691-8707,Urson Bes
9874044314,2392 Forest Run Way,Apt 1857,Dihtyari,,UA,,568-457-7986,Marijo Cromack
8518170885,7430 Carberry Lane,Room 1957,Asprángeloi,,GR,,671-280-1531,Raimundo Ponter
9404258377,1475 Petterle Avenue,Suite 98,Phoenix,Arizona,US,85010,602-547-8184,Charlton Vanlint
5939436595,669 Kropf Drive,Room 1763,Maintang,,CN,,536-870-0121,Brodie McKilroe
7277995643,249 Mcguire Junction,Apt 1355,Melbourne,Victoria,AU,8045,496-781-4494,Delly Belchambers
9621311128,88763 Buell Junction,PO Box 70650,Cali,,CO,760050,580-309-9492,Hans Sutherby
8738486180,70 Darwin Street,1st Floor,Dąbrowice,,PL,99-352,764-505-5243,Rachael Kehri
0692449043,323 Chive Avenue,18th Floor,Kuybyshevskiy Zaton,,RU,422826,957-514-1133,Kata Sperry
3674708183,92 Manley Park,Room 1369,Wanzhi,,CN,,524-485-6026,Kelcie Valentinuzzi
6316376243,7360 Lakewood Gardens Lane,Apt 755,Jacaltenango,,GT,13007,622-412-4720,Alicia Jaeggi
2823154957,4 Anderson Drive,18th Floor,Risālpur,,PK,24081,852-989-9906,Albertina Heberden
0638836522,813 Meadow Valley Pass,PO Box 46584,Al Mazra‘ah,,SY,,205-203-5277,Noak Marthen
2719210129,1 Holy Cross Plaza,PO Box 82107,Jiujie,,CN,,119-837-1360,Cornie Casarili
3576289429,63 Stang Park,19th Floor,Gornja Koprivna,,BA,,519-579-2230,Wyn Padgham
1433373122,31 Thackeray Circle,PO Box 62187,As Samawah,,IQ,,111-581-3891,Lizzy Wisam
2786957877,1 South Road,PO Box 98436,Skore,,AL,,475-510-4381,Curran Bouldstridge
0866440577,8240 Maple Wood Terrace,20th Floor,Buyunshan,,CN,,274-563-0876,Dick Frend
9603866911,9 Toban Center,Apt 879,Payapa,,PH,5002,106-244-7210,Suellen Crass
8608426951,458 Cottonwood Crossing,PO Box 12017,Leksand,Dalarna,SE,793 50,697-681-9063,Lamont Staddom
1101074434,21 Summit Point,Apt 325,Pangkungparuk,,ID,,312-441-1682,Bridget Ferro
0348704372,714 Amoth Hill,Suite 4,Ismailia,,EG,,334-136-4373,Pammi Duker
4126556192,3045 Jackson Way,PO Box 23431,Kodamachō-kodamaminami,,JP,375-0054,612-142-3741,Henryetta Lieb
1872069975,383 Grim Pass,PO Box 75110,Biga,,PH,7413,433-919-0415,Rickie Aberdeen
7843905146,71615 Moose Park,2nd Floor,Al Qadarif,,SD,,419-563-3092,Hamish Carsey
8257522538,85287 5th Point,Room 1735,Daleszyce,,PL,26-021,102-945-6791,Burg Edison
